{"type": "FeatureCollection", "features": [{"type": "Feature", "properties": {"name": "neighbour land"}, "geometry": {"type": "MultiPolygon", "coordinates": [[[[112.736827, 16.660224], [112.725271, 16.666205], [112.726248, 16.669013], [112.736827, 16.660224]]], [[[112.333181, 16.825019], [112.330577, 16.837633], [112.33725, 16.828437], [112.333181, 16.825019]]], [[[112.333669, 16.926418], [112.341075, 16.926988], [112.340505, 16.92357], [112.333669, 16.926418]]], [[[112.007335, 21.636542], [112.0, 21.621473262855616], [112.0, 21.65379396634166], [112.007335, 21.636542]]], [[[112.567882, 21.660631], [112.555919, 21.678127], [112.645356, 21.712836], [112.654552, 21.698472], [112.63795, 21.664455], [112.650401, 21.640448], [112.607188, 21.616034], [112.555919, 21.62344], [112.534923, 21.595526], [112.519298, 21.606676], [112.567882, 21.660631]]], [[[112.764903, 21.581855], [112.734386, 21.62873], [112.774425, 21.691718], [112.715587, 21.680243], [112.711681, 21.702541], [112.764903, 21.731757], [112.777517, 21.77265], [112.862559, 21.769436], [112.862559, 21.745592], [112.797537, 21.705878], [112.810557, 21.65762], [112.793468, 21.608222], [112.810557, 21.589301], [112.764903, 21.581855]]], [[[112.0, 21.773996509938566], [112.0, 21.77433797264087], [112.000255, 21.774319], [112.0, 21.773996509938566]]], [[[113.25766, 21.946601], [113.280935, 21.922838], [113.258474, 21.880439], [113.22169, 21.91413], [113.25766, 21.946601]]], [[[113.771747, 22.000343], [113.764477, 21.966818], [113.736279, 21.997162], [113.771747, 22.000343]]], [[[114.30421, 22.069281], [114.305349, 22.050279], [114.222423, 22.021674], [114.206716, 22.025784], [114.30421, 22.069281]]], [[[113.405772, 22.007025], [113.309418, 22.024115], [113.343598, 22.068508], [113.38266, 22.089586], [113.398936, 22.068508], [113.412608, 22.075995], [113.405772, 22.007025]]], [[[113.547618, 22.092597], [113.484711, 22.071357], [113.465994, 22.101508], [113.518891, 22.127265], [113.547618, 22.092597]]], [[[113.364757, 22.157904], [113.31365, 22.076402], [113.289073, 22.068508], [113.268809, 22.088324], [113.271739, 22.120022], [113.314952, 22.153998], [113.364757, 22.157904]]], [[[113.621187, 22.391419], [113.611816, 22.43047], [113.634883, 22.438045], [113.657825, 22.423751], [113.621187, 22.391419]]], [[[113.525501, 22.744873], [113.559505, 22.735], [113.573204, 22.700698], [113.635687, 22.656475], [113.641832, 22.601624], [113.60261, 22.611521], [113.476511, 22.719514], [113.476539, 22.731268], [113.525501, 22.744873]]], [[[113.473155, 22.825385], [113.455903, 22.830756], [113.396169, 22.898098], [113.432953, 22.912014], [113.475597, 22.900702], [113.527029, 22.846625], [113.573009, 22.830064], [113.602875, 22.772447], [113.594574, 22.75609], [113.558279, 22.75788], [113.528575, 22.802151], [113.521169, 22.787909], [113.506114, 22.798041], [113.480805, 22.849311], [113.473155, 22.825385]]], [[[113.545014, 22.879961], [113.50996, 22.921216], [113.515376, 22.96922], [113.553599, 22.911281], [113.545014, 22.879961]]], [[[117.01002, 23.438951], [117.037579, 23.446901], [117.062999, 23.478461], [117.090328, 23.461077], [117.125852, 23.482692], [117.122569, 23.465522], [117.141794, 23.449653], [117.128781, 23.399369], [116.942989, 23.430062], [116.982188, 23.459459], [117.01002, 23.438951]]], [[[116.974376, 23.559394], [117.005138, 23.562934], [116.970958, 23.514635], [116.937266, 23.526272], [116.974376, 23.559394]]], [[[117.421149, 23.646464], [117.415375, 23.608222], [117.431559, 23.58263], [117.320483, 23.574016], [117.369125, 23.622357], [117.393728, 23.679185], [117.340505, 23.688951], [117.376689, 23.728865], [117.372732, 23.76675], [117.413585, 23.771674], [117.447782, 23.742252], [117.526661, 23.740107], [117.516191, 23.716278], [117.484156, 23.710793], [117.479835, 23.662678], [117.444835, 23.664944], [117.421149, 23.646464]]], [[[118.106212, 24.494127], [118.082286, 24.482327], [118.072032, 24.49787], [118.09254, 24.55622], [118.181407, 24.535102], [118.189301, 24.503079], [118.136485, 24.429267], [118.092052, 24.438463], [118.069998, 24.460273], [118.103038, 24.479885], [118.106212, 24.494127]]], [[[119.390636, 25.966986], [119.257579, 26.001451], [119.209239, 26.098578], [119.257579, 26.047553], [119.401215, 25.996039], [119.390636, 25.966986]]], [[[120.750354, 31.978336], [120.824799, 31.828702], [120.807752, 31.809741], [120.751475, 31.824693], [120.717133, 31.86107], [120.731456, 31.81387], [120.831899, 31.777766], [121.013764, 31.743034], [121.144402, 31.684658], [121.244721, 31.600409], [121.320323, 31.504828], [121.546235, 31.366116], [121.725164, 31.281567], [121.877025, 31.099136], [121.977383, 30.914923], [121.960075, 30.874257], [121.907399, 30.857086], [121.631132, 30.836556], [121.542937, 30.816495], [121.410598, 30.767388], [121.333507, 30.70307], [121.202891, 30.665107], [121.121349, 30.593004], [121.020226, 30.571071], [120.948891, 30.506815], [120.928803, 30.45307], [120.939545, 30.421942], [120.894786, 30.401272], [120.915131, 30.374579], [120.888194, 30.368557], [120.810732, 30.296568], [120.769619, 30.306028], [120.744963, 30.359614], [120.698148, 30.393951], [120.479145, 30.403524], [120.430315, 30.38984], [120.378967, 30.273524], [120.257904, 30.298082], [120.147094, 30.198891], [120.178966, 30.20067], [120.274387, 30.277618], [120.295523, 30.278726], [120.350338, 30.240734], [120.38472, 30.249588], [120.450494, 30.36886], [120.621606, 30.372563], [120.651671, 30.35927], [120.698686, 30.251796], [120.734401, 30.232213], [120.631789, 30.122388], [120.682465, 30.084906], [120.764985, 30.086615], [120.792247, 30.066067], [120.783702, 30.089301], [120.687999, 30.097805], [120.646251, 30.126939], [120.751425, 30.225626], [120.813487, 30.213253], [120.82862, 30.18499], [120.892812, 30.169796], [120.994395, 30.211086], [121.109141, 30.282782], [121.149697, 30.325753], [121.254102, 30.348393], [121.377384, 30.325064], [121.429592, 30.292976], [121.506847, 30.220026], [121.658306, 30.018389], [121.732344, 29.978603], [121.721934, 29.960517], [121.767482, 29.973177], [121.914876, 29.918696], [121.935557, 29.887356], [122.056244, 29.887356], [122.105887, 29.906953], [122.129143, 29.903777], [122.136415, 29.884535], [121.983039, 29.823176], [121.902171, 29.752539], [121.873149, 29.753828], [121.862448, 29.708002], [121.776465, 29.652625], [121.687348, 29.562649], [121.59254, 29.543606], [121.574311, 29.552151], [121.530822, 29.510015], [121.511043, 29.548988], [121.44337, 29.524237], [121.455324, 29.489355], [121.427836, 29.467947], [121.442593, 29.415369], [121.465074, 29.420886], [121.479747, 29.474758], [121.504893, 29.483832], [121.491791, 29.455959], [121.513682, 29.451972], [121.511729, 29.437567], [121.477631, 29.412746], [121.484864, 29.39054], [121.531325, 29.417037], [121.569641, 29.474574], [121.642672, 29.495218], [121.710948, 29.538642], [121.731293, 29.518012], [121.763999, 29.530761], [121.757223, 29.499049], [121.778381, 29.469423], [121.811988, 29.490118], [121.844819, 29.5362], [121.813975, 29.552151], [121.744965, 29.544664], [121.79612, 29.600591], [121.915782, 29.640855], [121.971202, 29.593329], [121.970958, 29.568915], [121.941173, 29.551174], [121.949799, 29.538479], [121.910411, 29.524563], [121.970958, 29.449123], [121.957286, 29.408149], [121.93629, 29.42772], [121.922556, 29.418146], [121.916246, 29.348937], [121.931407, 29.323879], [121.908946, 29.318793], [121.915782, 29.305121], [121.900483, 29.298651], [121.939952, 29.264146], [121.974376, 29.284613], [121.991466, 29.25731], [121.953217, 29.249661], [121.957286, 29.216376], [121.942963, 29.223212], [121.942963, 29.195868], [121.840587, 29.161119], [121.785347, 29.168085], [121.799653, 29.305121], [121.840587, 29.318793], [121.830658, 29.333889], [121.799653, 29.318793], [121.788178, 29.328559], [121.799653, 29.373969], [121.786632, 29.374498], [121.758637, 29.359768], [121.774314, 29.253887], [121.724328, 29.182035], [121.652458, 29.18302], [121.639171, 29.217271], [121.654552, 29.299994], [121.640391, 29.306627], [121.624848, 29.301459], [121.628917, 29.188422], [121.574311, 29.305121], [121.562022, 29.295844], [121.574311, 29.277777], [121.52589, 29.277777], [121.536388, 29.258287], [121.504893, 29.20893], [121.50351, 29.178941], [121.490977, 29.175971], [121.480235, 29.197211], [121.456391, 29.161119], [121.431407, 29.172187], [121.408539, 29.161119], [121.456391, 29.133775], [121.401703, 29.106513], [121.62143, 29.113267], [121.614757, 29.058051], [121.536876, 29.061184], [121.532074, 29.020494], [121.548595, 29.02143], [121.539561, 29.037584], [121.557384, 29.049018], [121.617442, 29.039984], [121.641938, 29.051256], [121.689789, 29.017076], [121.653819, 28.988593], [121.684174, 28.955634], [121.717784, 28.948798], [121.684174, 28.9147], [121.605317, 28.942572], [121.587413, 28.963121], [121.570811, 28.93008], [121.516856, 28.956366], [121.491791, 28.928371], [121.504893, 28.935207], [121.51767, 28.912787], [121.580577, 28.886786], [121.61085, 28.891181], [121.628917, 28.877143], [121.623546, 28.842271], [121.669932, 28.825344], [121.635753, 28.804836], [121.662608, 28.790595], [121.618256, 28.761949], [121.62143, 28.735907], [121.502778, 28.700385], [121.351166, 28.711859], [121.290294, 28.751614], [121.237885, 28.763861], [121.214447, 28.807318], [121.142345, 28.845852], [121.159679, 28.813544], [121.206065, 28.799058], [121.231212, 28.760159], [121.299327, 28.722886], [121.298676, 28.701239], [121.258393, 28.675116], [121.365001, 28.696031], [121.381358, 28.681952], [121.413829, 28.696601], [121.510128, 28.657059], [121.538433, 28.571446], [121.581619, 28.50469], [121.511567, 28.489488], [121.607743, 28.477203], [121.583777, 28.442946], [121.632263, 28.379446], [121.634044, 28.347235], [121.656342, 28.339301], [121.621349, 28.285102], [121.585541, 28.256822], [121.580577, 28.300849], [121.499986, 28.332673], [121.473086, 28.330603], [121.436046, 28.297105], [121.408946, 28.304918], [121.395518, 28.284084], [121.418793, 28.269721], [121.416026, 28.256171], [121.364838, 28.225816], [121.354015, 28.187893], [121.374522, 28.195258], [121.374034, 28.172593], [121.35141, 28.146552], [121.330089, 28.147528], [121.261695, 28.225791], [121.225165, 28.238863], [121.248871, 28.270209], [121.236827, 28.306098], [121.203136, 28.331855], [121.21754, 28.352362], [121.244151, 28.349107], [121.264659, 28.366034], [121.214122, 28.360582], [121.168956, 28.384833], [121.168956, 28.359768], [121.144298, 28.343573], [121.13025, 28.305554], [121.072113, 28.291693], [121.066661, 28.311428], [121.024994, 28.304592], [121.058116, 28.279934], [121.121803, 28.284362], [121.124753, 28.23552], [121.085836, 28.166504], [121.009378, 28.103133], [120.993512, 28.025779], [120.965228, 27.987145], [120.921397, 27.981676], [120.879975, 27.998725], [120.819591, 27.989244], [120.731049, 28.035834], [120.606049, 28.042222], [120.59018, 28.054389], [120.576996, 28.115627], [120.559581, 28.112779], [120.58017, 28.089789], [120.588959, 28.026679], [120.673595, 28.021715], [120.75058, 27.975572], [120.835297, 27.955959], [120.863762, 27.918106], [120.868364, 27.882559], [120.807486, 27.834827], [120.722614, 27.71591], [120.704255, 27.712839], [120.635265, 27.763332], [120.672455, 27.711493], [120.675629, 27.659654], [120.666484, 27.625358], [120.596574, 27.570283], [120.618459, 27.516421], [120.681977, 27.481594], [120.646495, 27.444485], [120.635265, 27.379706], [120.545909, 27.403266], [120.539643, 27.36522], [120.504893, 27.344957], [120.549327, 27.321031], [120.543956, 27.285956], [120.517833, 27.263007], [120.517833, 27.201606], [120.468354, 27.182196], [120.459727, 27.220445], [120.421723, 27.222073], [120.42921, 27.173651], [120.406749, 27.184231], [120.376231, 27.236274], [120.34726, 27.249416], [120.303071, 27.242255], [120.288097, 27.264472], [120.319347, 27.290351], [120.298839, 27.297797], [120.31186, 27.317694], [120.285167, 27.304023], [120.264008, 27.324449], [120.271495, 27.304023], [120.258556, 27.299994], [120.223725, 27.311469], [120.243663, 27.290351], [120.225678, 27.268622], [120.195811, 27.297797], [120.195811, 27.263007], [120.175304, 27.238837], [120.182384, 27.216864], [120.256602, 27.256903], [120.306407, 27.215277], [120.34726, 27.24258], [120.365489, 27.209621], [120.34726, 27.180487], [120.369884, 27.187486], [120.421723, 27.146959], [120.373871, 27.146959], [120.40797, 27.139553], [120.367035, 27.12523], [120.381358, 27.119045], [120.373871, 27.106024], [120.39503, 27.106024], [120.377533, 27.098578], [120.282725, 27.112291], [120.243663, 27.132717], [120.278331, 27.063788], [120.257823, 27.072659], [120.216319, 27.037095], [120.241547, 27.034003], [120.255219, 26.997056], [120.237397, 26.981879], [120.148692, 26.981879], [120.187022, 26.963528], [120.235688, 26.966376], [120.237397, 26.927232], [120.219086, 26.915432], [120.125743, 26.927314], [120.113617, 26.918769], [120.120697, 26.899888], [120.095551, 26.887274], [120.031993, 26.899888], [120.055268, 26.88939], [120.025157, 26.860175], [120.024506, 26.837877], [120.128184, 26.796942], [120.097748, 26.75849], [120.10019, 26.742906], [120.148692, 26.721177], [120.102061, 26.689154], [120.120697, 26.646064], [120.134369, 26.646064], [120.080414, 26.617418], [120.079682, 26.646064], [120.014903, 26.611274], [119.959972, 26.611274], [119.935639, 26.560452], [119.884288, 26.523179], [119.847179, 26.523627], [119.832612, 26.550482], [119.85377, 26.564114], [119.85377, 26.598293], [119.984141, 26.65351], [119.976817, 26.674018], [120.011485, 26.721177], [120.032319, 26.71662], [120.079682, 26.796942], [119.925141, 26.792182], [119.935639, 26.759019], [119.888031, 26.687242], [119.901622, 26.659735], [119.879649, 26.655341], [119.856944, 26.65351], [119.85377, 26.68769], [119.829194, 26.714993], [119.791759, 26.68769], [119.802257, 26.766791], [119.840099, 26.790025], [119.791759, 26.790025], [119.797374, 26.816392], [119.846283, 26.8522], [119.781993, 26.828518], [119.756196, 26.737738], [119.730235, 26.742906], [119.712006, 26.807929], [119.685802, 26.811998], [119.677989, 26.763129], [119.727387, 26.717922], [119.724946, 26.697821], [119.646007, 26.753323], [119.626557, 26.749091], [119.621837, 26.78677], [119.606049, 26.796942], [119.575531, 26.788031], [119.552094, 26.749091], [119.55893, 26.708197], [119.606049, 26.694525], [119.599864, 26.646064], [119.55893, 26.666571], [119.541108, 26.656317], [119.55421, 26.61518], [119.599864, 26.57038], [119.675059, 26.618801], [119.735199, 26.611965], [119.73642, 26.591457], [119.784923, 26.577826], [119.784923, 26.550482], [119.7706, 26.564114], [119.76588, 26.534369], [119.798595, 26.515774], [119.784923, 26.502021], [119.818858, 26.453192], [119.812266, 26.433783], [119.791759, 26.433783], [119.791759, 26.413316], [119.761974, 26.407457], [119.737641, 26.443671], [119.689789, 26.459459], [119.653656, 26.498033], [119.620372, 26.467963], [119.5796, 26.470893], [119.566417, 26.454901], [119.57309, 26.437812], [119.63087, 26.448717], [119.648448, 26.437445], [119.655528, 26.355618], [119.688731, 26.337592], [119.681895, 26.317125], [119.747081, 26.327623], [119.754405, 26.372056], [119.7706, 26.364936], [119.791759, 26.40648], [119.825776, 26.426947], [119.851329, 26.392808], [119.840099, 26.378567], [119.894786, 26.35871], [119.949962, 26.364936], [119.877452, 26.313381], [119.854747, 26.327541], [119.801117, 26.317572], [119.784923, 26.296617], [119.805431, 26.290432], [119.792735, 26.284084], [119.764415, 26.296617], [119.654307, 26.272406], [119.634125, 26.255072], [119.668224, 26.242011], [119.668224, 26.221503], [119.600108, 26.176337], [119.599864, 26.145819], [119.561127, 26.124986], [119.458507, 25.982489], [119.435557, 25.98135], [119.41505, 26.009263], [119.326915, 26.048041], [119.27711, 26.052924], [119.215831, 26.100084], [119.093516, 26.145819], [119.157319, 26.090766], [119.19516, 26.087592], [119.246837, 25.967231], [119.329845, 25.944281], [119.377533, 25.941392], [119.440929, 25.963813], [119.490001, 25.994208], [119.519054, 26.044501], [119.566417, 26.050238], [119.648448, 26.015448], [119.675059, 26.022284], [119.695404, 26.002631], [119.702403, 25.985053], [119.675059, 25.926093], [119.616466, 25.892646], [119.599864, 25.844184], [119.584076, 25.876939], [119.574229, 25.884914], [119.566417, 25.872056], [119.62086, 25.760321], [119.596446, 25.731513], [119.589936, 25.687161], [119.572602, 25.679674], [119.535411, 25.705878], [119.477061, 25.679674], [119.449067, 25.687161], [119.467052, 25.613918], [119.483246, 25.625678], [119.492442, 25.564765], [119.517345, 25.556789], [119.534434, 25.575873], [119.558442, 25.563788], [119.579438, 25.584662], [119.56837, 25.547431], [119.59311, 25.529486], [119.566417, 25.515815], [119.599864, 25.508368], [119.572602, 25.48786], [119.603608, 25.491156], [119.599864, 25.47484], [119.628022, 25.461371], [119.614024, 25.438788], [119.634125, 25.433254], [119.646007, 25.392564], [119.620372, 25.364976], [119.654552, 25.35814], [119.579438, 25.344468], [119.599864, 25.371161], [119.57602, 25.467353], [119.538585, 25.461168], [119.535981, 25.419135], [119.558197, 25.404608], [119.544444, 25.377183], [119.483246, 25.371161], [119.507335, 25.474433], [119.466156, 25.47484], [119.447032, 25.438788], [119.433116, 25.45954], [119.449067, 25.505276], [119.356537, 25.526923], [119.38087, 25.590888], [119.360362, 25.577297], [119.343028, 25.609198], [119.305186, 25.60456], [119.321381, 25.587348], [119.277843, 25.570461], [119.237804, 25.481757], [119.10255, 25.420315], [119.173188, 25.325141], [119.20338, 25.35814], [119.223155, 25.316596], [119.181488, 25.289252], [119.201264, 25.259711], [119.225841, 25.27969], [119.243012, 25.330227], [119.265147, 25.317572], [119.277843, 25.330227], [119.318858, 25.279364], [119.347504, 25.267768], [119.344249, 25.242377], [119.281261, 25.241441], [119.272472, 25.231757], [119.288829, 25.189114], [119.255626, 25.175897], [119.229376, 25.193215], [119.175629, 25.1765], [119.141975, 25.220978], [119.116096, 25.213782], [119.10418, 25.182948], [119.1338, 25.138414], [119.153087, 25.139716], [119.1338, 25.124742], [119.093272, 25.135647], [119.08546, 25.124742], [119.099132, 25.111151], [119.064789, 25.124742], [119.079194, 25.152086], [119.064708, 25.162543], [119.044444, 25.124742], [119.029063, 25.14053], [119.068858, 25.216742], [118.96933, 25.226386], [118.979991, 25.244859], [119.024946, 25.259289], [119.027298, 25.278238], [118.983653, 25.283026], [118.87558, 25.243842], [118.864838, 25.227973], [118.911143, 25.217231], [118.915294, 25.179389], [118.948253, 25.19717], [118.97462, 25.182563], [118.942963, 25.108832], [118.857677, 25.098049], [118.849132, 25.073798], [118.87794, 25.040717], [118.953705, 25.002997], [118.979991, 25.011786], [119.004161, 25.050238], [118.983246, 24.995103], [118.997325, 24.953437], [119.01767, 24.960273], [118.977061, 24.934027], [118.963715, 24.954413], [118.911632, 24.953437], [118.909923, 24.907172], [118.934174, 24.886054], [118.973237, 24.893785], [118.976166, 24.877753], [118.951996, 24.870754], [118.792084, 24.891099], [118.777599, 24.885199], [118.780121, 24.867825], [118.716075, 24.843573], [118.69809, 24.859524], [118.729503, 24.900539], [118.695567, 24.940416], [118.688813, 24.895738], [118.667735, 24.953437], [118.640391, 24.915595], [118.671153, 24.874661], [118.624115, 24.867825], [118.572032, 24.885199], [118.612804, 24.85578], [118.63795, 24.772121], [118.701752, 24.810045], [118.719981, 24.769355], [118.76295, 24.762681], [118.746837, 24.720689], [118.685395, 24.66649], [118.654063, 24.693427], [118.6421, 24.678697], [118.633556, 24.627875], [118.664154, 24.61225], [118.661469, 24.590318], [118.620453, 24.545478], [118.553966, 24.518052], [118.554454, 24.553209], [118.578136, 24.560207], [118.501231, 24.60814], [118.428071, 24.631334], [118.431244, 24.699693], [118.40089, 24.672309], [118.421886, 24.624498], [118.404796, 24.606635], [118.351654, 24.582343], [118.284028, 24.597805], [118.27296, 24.574408], [118.249848, 24.576117], [118.241791, 24.543769], [118.219005, 24.541449], [118.181163, 24.576117], [118.181651, 24.597805], [118.21518, 24.614814], [118.174327, 24.624498], [118.187592, 24.657375], [118.160492, 24.693427], [118.157481, 24.662665], [118.141449, 24.656968], [118.110362, 24.584052], [118.044444, 24.617662], [118.037364, 24.560614], [118.00294, 24.562445], [118.009288, 24.580715], [117.974864, 24.55272], [118.058116, 24.515855], [117.999522, 24.470852], [118.021739, 24.445746], [117.867686, 24.489569], [117.825938, 24.480455], [117.901134, 24.453192], [117.79127, 24.467475], [117.907319, 24.384914], [118.042979, 24.406684], [118.040782, 24.365627], [118.01588, 24.32685], [118.052989, 24.34691], [118.090587, 24.341457], [118.126475, 24.26203], [118.071788, 24.254584], [117.989268, 24.193101], [117.97877, 24.162095], [117.967865, 24.159817], [117.943614, 24.212592], [117.907319, 24.186265], [117.937755, 24.161689], [117.895763, 24.086615], [117.893647, 24.028022], [117.839122, 24.023627], [117.771983, 23.95893], [117.748057, 23.907538], [117.729259, 23.919379], [117.737885, 23.950507], [117.798106, 24.021796], [117.761729, 24.014838], [117.776134, 24.037299], [117.763276, 24.070258], [117.750011, 24.037299], [117.724132, 24.033759], [117.667084, 24.06273], [117.679698, 24.039049], [117.708751, 24.035468], [117.688487, 23.997504], [117.695079, 23.953559], [117.648633, 23.909234], [117.625536, 23.840153], [117.639269, 23.794102], [117.591669, 23.737064], [117.598155, 23.852444], [117.571056, 23.903266], [117.454845, 23.925605], [117.416596, 23.946845], [117.409679, 23.913398], [117.468516, 23.911933], [117.499596, 23.874072], [117.490073, 23.832579], [117.463477, 23.788287], [117.434331, 23.775922], [117.382416, 23.795233], [117.319102, 23.761623], [117.292572, 23.789496], [117.277354, 23.782213], [117.292328, 23.762152], [117.263649, 23.655425], [117.279122, 23.636268], [117.257093, 23.615616], [117.238964, 23.605473], [117.24409, 23.657548], [117.229503, 23.692816], [117.208507, 23.664944], [117.219201, 23.629628], [117.15083, 23.606867], [117.12846, 23.572354], [117.084228, 23.550606], [117.068413, 23.651273], [117.023448, 23.658677], [116.950705, 23.610883], [116.917572, 23.637926], [116.940929, 23.658677], [116.916515, 23.662746], [116.872081, 23.606879], [116.883311, 23.559638], [116.849701, 23.511298], [116.872621, 23.473807], [116.866628, 23.450233], [116.773224, 23.349432], [116.657844, 23.354452], [116.56894, 23.391018], [116.543224, 23.42121], [116.523204, 23.418524], [116.523204, 23.377509], [116.573009, 23.323676], [116.641889, 23.318835], [116.69124, 23.338977], [116.709414, 23.31977], [116.748635, 23.326288], [116.77711, 23.240383], [116.804822, 23.236122], [116.783946, 23.212388], [116.705577, 23.276597], [116.667247, 23.281317], [116.715099, 23.243801], [116.671166, 23.214639], [116.646755, 23.162991], [116.615216, 23.178349], [116.61151, 23.23873], [116.569976, 23.246973], [116.508881, 23.234117], [116.526988, 23.200621], [116.563975, 23.222968], [116.604504, 23.209557], [116.545121, 23.144775], [116.533648, 23.109135], [116.551656, 23.086724], [116.56325, 23.018774], [116.521936, 22.998411], [116.494688, 22.939352], [116.45851, 22.94742], [116.379607, 22.928984], [116.289064, 22.978943], [116.213634, 22.982815], [116.20102, 22.973456], [116.281458, 22.957857], [116.14491, 22.847823], [116.09569, 22.8259], [116.091253, 22.86841], [116.123721, 22.894729], [116.042105, 22.932918], [116.087254, 22.889694], [116.076178, 22.867871], [115.958014, 22.804743], [115.883497, 22.794619], [115.81003, 22.746091], [115.788039, 22.797842], [115.813569, 22.776272], [115.804779, 22.81509], [115.73687, 22.851673], [115.697036, 22.850671], [115.703581, 22.869323], [115.684266, 22.877779], [115.692638, 22.900092], [115.721283, 22.904527], [115.730317, 22.934231], [115.691987, 22.929023], [115.653331, 22.893744], [115.577891, 22.877265], [115.560557, 22.849311], [115.53297, 22.862047], [115.547618, 22.895413], [115.505626, 22.897773], [115.450938, 22.931871], [115.430186, 22.918199], [115.406016, 22.925035], [115.427257, 22.900621], [115.464203, 22.912014], [115.483002, 22.901842], [115.494151, 22.860785], [115.468028, 22.849311], [115.559418, 22.836086], [115.612071, 22.863593], [115.527017, 22.767042], [115.523936, 22.741767], [115.555588, 22.71437], [115.567321, 22.747281], [115.590099, 22.737209], [115.562511, 22.705634], [115.575219, 22.668336], [115.536156, 22.668123], [115.464818, 22.701034], [115.373508, 22.694177], [115.338471, 22.7331], [115.424133, 22.761993], [115.411208, 22.788268], [115.363994, 22.763645], [115.33057, 22.78854], [115.233391, 22.788209], [115.232767, 22.80534], [115.32016, 22.850531], [115.317149, 22.904527], [115.303803, 22.903022], [115.245616, 22.835354], [115.172944, 22.821194], [115.180271, 22.784806], [115.132878, 22.811454], [115.065475, 22.795985], [115.017828, 22.737044], [115.028903, 22.708377], [114.985342, 22.689309], [114.95467, 22.703544], [114.941661, 22.753852], [114.926768, 22.761176], [114.916759, 22.744045], [114.862524, 22.763216], [114.881873, 22.747523], [114.880736, 22.72147], [114.926726, 22.71693], [114.966629, 22.676487], [114.901938, 22.598057], [114.919119, 22.561155], [114.895966, 22.547524], [114.880215, 22.559113], [114.88682, 22.590872], [114.865816, 22.601745], [114.754145, 22.589714], [114.743776, 22.609404], [114.73745, 22.669046], [114.753778, 22.693385], [114.741951, 22.732653], [114.821252, 22.79056], [114.775238, 22.815823], [114.754893, 22.781684], [114.695481, 22.792642], [114.637787, 22.755072], [114.563324, 22.732733], [114.571096, 22.702354], [114.522065, 22.705959], [114.506607, 22.646523], [114.58253, 22.65526], [114.590343, 22.643866], [114.495372, 22.561957], [114.509288, 22.549547], [114.543224, 22.569403], [114.617686, 22.514146], [114.515816, 22.452643], [114.485118, 22.468329], [114.479584, 22.54621], [114.395763, 22.613511], [114.317149, 22.602362], [114.30714, 22.585435], [114.276215, 22.587958], [114.229828, 22.555813], [114.161951, 22.560536], [114.148722, 22.538109], [114.091464, 22.534388], [114.055268, 22.506944], [113.963796, 22.538113], [113.947758, 22.490406], [113.91033, 22.485826], [113.890345, 22.452712], [113.866155, 22.511493], [113.893891, 22.521145], [113.822358, 22.587226], [113.793568, 22.661614], [113.772934, 22.672448], [113.758067, 22.753404], [113.712169, 22.763332], [113.672374, 22.746894], [113.653575, 22.758734], [113.662608, 22.798082], [113.617198, 22.890286], [113.617198, 22.836249], [113.605561, 22.847235], [113.610362, 22.904527], [113.592296, 22.889065], [113.638194, 23.034898], [113.61671, 23.00788], [113.59669, 22.918199], [113.617198, 23.034898], [113.576182, 22.938707], [113.583018, 23.021226], [113.553966, 22.987616], [113.528819, 23.01081], [113.536388, 23.063137], [113.582123, 23.098456], [113.720225, 23.137926], [113.830089, 23.117499], [113.703136, 23.157782], [113.542003, 23.086412], [113.509125, 23.062161], [113.417491, 23.096991], [113.398692, 23.083319], [113.481212, 23.0515], [113.502312, 23.020424], [113.483979, 22.924262], [113.429942, 22.931342], [113.307628, 22.89411], [113.212983, 22.904527], [113.292247, 22.877265], [113.350434, 22.889716], [113.440033, 22.804145], [113.494233, 22.774848], [113.439545, 22.739447], [113.377533, 22.767401], [113.466319, 22.716498], [113.59917, 22.57518], [113.594738, 22.52339], [113.546355, 22.437585], [113.558116, 22.380764], [113.610362, 22.370185], [113.573578, 22.300727], [113.587655, 22.237882], [113.52296, 22.213039], [113.529877, 22.202257], [113.483745, 22.155142], [113.459214, 22.158004], [113.364513, 22.267768], [113.351573, 22.308336], [113.276378, 22.372056], [113.231944, 22.479071], [113.165294, 22.575588], [113.160167, 22.487616], [113.227306, 22.425279], [113.401971, 22.179574], [113.302745, 22.183295], [113.250987, 22.115668], [113.247162, 22.054267], [113.157467, 22.0247], [113.13963, 22.036852], [113.110606, 22.099189], [113.127452, 22.160956], [113.110606, 22.219306], [113.085053, 22.207587], [113.07729, 22.147267], [113.057893, 22.121094], [113.026614, 22.143212], [113.020638, 22.125978], [113.02562, 21.949425], [112.98935, 21.937323], [112.957081, 21.875653], [112.911586, 21.856291], [112.879405, 21.87519], [112.851573, 21.94831], [112.82602, 21.966132], [112.743744, 21.931952], [112.730479, 21.890326], [112.70045, 21.890326], [112.645112, 21.849351], [112.647553, 21.822659], [112.608002, 21.775092], [112.550873, 21.772854], [112.426036, 21.84516], [112.411143, 21.90119], [112.493663, 21.966132], [112.43629, 21.945624], [112.390636, 21.955512], [112.376313, 21.986558], [112.397472, 22.068508], [112.378184, 22.058417], [112.357514, 22.005357], [112.404307, 21.81151], [112.38795, 21.75609], [112.363292, 21.733344], [112.244884, 21.706529], [112.182384, 21.752997], [112.203136, 21.806708], [112.192638, 21.843166], [112.172699, 21.814439], [112.085541, 21.796088], [112.013031, 21.804389], [112.007091, 21.818671], [112.04127, 21.884182], [112.0, 21.840999266247955], [112.0, 32.0], [119.961222, 31.990616], [120.006396, 31.950305], [120.178315, 31.904202], [120.455781, 31.982519], [120.45440735389751, 32.0], [120.689952, 31.998236], [120.750354, 31.978336]]], [[[120.010753, 16.254625], [119.992931, 16.23017], [119.925548, 16.295356], [119.927501, 16.313137], [119.973155, 16.350572], [120.005626, 16.311754], [120.010753, 16.254625]]], [[[122.135753, 17.737291], [122.156261, 17.706936], [122.162934, 17.593329], [122.197113, 17.494615], [122.239594, 17.426825], [122.25115, 17.360175], [122.28712, 17.360582], [122.313731, 17.340074], [122.365408, 17.353746], [122.402599, 17.305976], [122.397797, 17.329088], [122.414561, 17.319078], [122.443614, 17.265611], [122.409434, 17.275214], [122.423106, 17.220608], [122.41684, 17.145819], [122.45102, 17.114163], [122.500987, 17.139797], [122.529063, 17.090522], [122.472911, 16.989691], [122.464692, 16.895087], [122.422699, 16.794338], [122.300141, 16.565497], [122.23878, 16.504055], [122.231944, 16.466498], [122.204275, 16.43476], [122.217621, 16.394761], [122.231944, 16.415269], [122.191905, 16.317369], [122.197113, 16.291693], [122.231944, 16.319037], [122.203868, 16.236518], [122.177257, 16.230292], [122.076996, 16.132717], [122.059255, 16.077786], [121.99171, 16.03852], [122.033458, 16.117133], [122.081065, 16.148383], [122.101573, 16.20775], [122.132579, 16.225491], [122.135265, 16.260728], [122.087413, 16.255316], [122.066905, 16.190131], [122.050548, 16.180854], [121.868175, 16.120429], [121.829926, 16.090399], [121.752289, 16.07689], [121.66920470793488, 16.0], [119.75681617772962, 16.0], [119.778331, 16.137844], [119.755707, 16.203437], [119.781912, 16.322252], [119.812511, 16.367499], [119.870291, 16.385403], [119.916352, 16.380845], [119.925792, 16.364976], [119.901866, 16.2508], [119.970225, 16.226549], [120.015147, 16.181871], [120.050059, 16.180854], [120.087738, 16.157213], [120.105642, 16.069648], [120.138845, 16.046129], [120.208507, 16.03266], [120.292247, 16.055609], [120.306651, 16.044664], [120.299083, 16.017401], [120.333832, 16.058987], [120.363292, 16.055487], [120.361013, 16.073188], [120.326427, 16.065823], [120.329356, 16.079495], [120.40211, 16.165473], [120.397472, 16.22899], [120.35377, 16.291693], [120.35377, 16.271308], [120.336274, 16.292182], [120.299083, 16.493801], [120.306651, 16.544989], [120.276134, 16.611884], [120.306651, 16.613918], [120.302501, 16.654975], [120.325938, 16.712592], [120.319591, 16.819322], [120.427257, 16.9619], [120.43629, 17.008002], [120.40211, 17.206692], [120.408214, 17.322699], [120.443696, 17.388495], [120.40211, 17.518866], [120.340831, 17.538764], [120.333832, 17.556383], [120.353201, 17.678127], [120.412446, 17.712836], [120.416352, 17.744778], [120.391287, 17.78144], [120.427908, 17.838121], [120.427908, 17.916653], [120.477224, 18.004828], [120.470063, 18.09101], [120.579112, 18.325141], [120.584972, 18.405463], [120.560802, 18.486762], [120.590505, 18.522162], [120.611095, 18.53856], [120.690684, 18.53441], [120.770844, 18.561469], [120.778982, 18.621812], [120.812999, 18.644517], [120.850841, 18.638861], [120.891856, 18.579901], [120.926931, 18.56623], [121.018321, 18.617092], [121.073009, 18.621812], [121.106781, 18.642727], [121.170665, 18.625474], [121.266287, 18.554877], [121.592052, 18.384711], [121.649669, 18.313951], [121.634613, 18.33454], [121.64503, 18.369452], [121.852794, 18.287991], [121.917328, 18.278632], [121.986827, 18.290432], [122.039561, 18.320217], [122.078624, 18.379462], [122.119314, 18.403022], [122.152843, 18.518785], [122.235362, 18.515367], [122.25172, 18.443061], [122.317149, 18.377427], [122.324962, 18.336615], [122.306977, 18.251288], [122.262706, 18.186103], [122.16977, 18.100491], [122.183442, 17.984361], [122.135753, 17.737291]]], [[[121.477794, 18.881903], [121.431407, 18.856147], [121.318614, 18.843207], [121.294932, 18.846829], [121.275238, 18.875881], [121.416759, 18.908149], [121.477794, 18.881903]]], [[[121.190278, 19.087348], [121.210948, 19.176703], [121.258962, 19.045722], [121.244965, 19.018459], [121.190278, 19.087348]]], [[[121.350841, 19.375922], [121.395763, 19.403266], [121.470958, 19.382148], [121.516612, 19.393541], [121.543305, 19.278876], [121.518728, 19.27912], [121.498302, 19.259263], [121.470958, 19.269232], [121.398936, 19.303371], [121.350841, 19.375922]]], [[[121.83839, 20.340766], [121.859386, 20.347357], [121.8921, 20.297349], [121.850841, 20.273424], [121.83839, 20.340766]]], [[[121.829845, 20.698961], [121.803396, 20.691148], [121.786388, 20.70307], [121.855805, 20.838324], [121.879242, 20.814032], [121.867686, 20.744289], [121.829845, 20.698961]]], [[[119.470388, 25.252183], [119.511974, 25.213446], [119.561046, 25.208645], [119.548676, 25.172431], [119.528982, 25.165351], [119.512706, 25.198798], [119.461192, 25.203315], [119.444672, 25.229071], [119.470388, 25.252183]]], [[[119.334972, 25.437974], [119.296886, 25.422919], [119.281505, 25.482896], [119.307465, 25.54682], [119.331716, 25.571275], [119.345958, 25.561103], [119.334972, 25.437974]]], [[[119.711599, 25.486233], [119.678477, 25.482327], [119.677745, 25.501207], [119.766368, 25.506252], [119.778331, 25.52204], [119.716156, 25.536322], [119.727061, 25.590888], [119.702647, 25.577297], [119.692719, 25.594224], [119.713634, 25.630601], [119.781749, 25.659166], [119.780284, 25.617418], [119.832856, 25.590888], [119.816905, 25.57982], [119.874522, 25.556789], [119.846528, 25.536322], [119.834483, 25.54914], [119.798839, 25.515815], [119.846528, 25.461168], [119.771983, 25.450588], [119.757335, 25.404934], [119.703868, 25.42357], [119.693044, 25.437649], [119.711599, 25.486233]]], [[[119.638845, 26.070502], [119.620372, 26.064195], [119.553966, 26.095649], [119.599376, 26.128119], [119.638927, 26.088568], [119.638845, 26.070502]]], [[[120.35255, 26.923774], [120.318533, 26.948594], [120.350922, 26.971177], [120.385671, 26.935167], [120.35255, 26.923774]]], [[[121.066487, 27.454984], [121.067264, 27.43677], [121.046109, 27.465199], [121.083143, 27.473019], [121.103365, 27.45188], [121.066487, 27.454984]]], [[[121.097992, 27.817816], [121.114024, 27.844143], [121.188487, 27.863715], [121.171235, 27.818793], [121.097992, 27.817816]]], [[[121.111339, 27.983791], [121.139659, 27.965766], [121.103282, 27.946194], [121.044688, 27.951972], [121.07016, 27.982896], [121.111339, 27.983791]]], [[[121.120372, 28.135688], [121.165283, 28.150534], [121.230588, 28.219733], [121.256403, 28.214798], [121.268893, 28.193942], [121.255531, 28.140001], [121.285352, 28.101946], [121.279145, 28.085435], [121.238129, 28.092922], [121.231456, 28.065009], [121.151573, 28.041232], [121.155235, 28.071368], [121.120372, 28.135688]]], [[[121.842052, 29.095038], [121.782725, 29.124661], [121.789806, 29.149848], [121.843923, 29.141913], [121.864594, 29.123847], [121.842052, 29.095038]]], [[[121.876475, 30.08161], [121.90919, 30.044989], [121.903331, 30.001776], [121.871593, 29.976711], [121.847423, 29.982123], [121.827403, 30.004218], [121.847667, 30.083157], [121.876475, 30.08161]]], [[[121.866222, 31.304185], [121.834727, 31.292548], [121.7942, 31.368801], [121.85377, 31.372992], [121.881847, 31.336615], [121.866222, 31.304185]]], [[[121.78004, 31.325181], [121.766368, 31.320624], [121.584483, 31.441392], [121.691254, 31.419176], [121.774181, 31.359198], [121.78004, 31.325181]]], [[[121.517456, 31.568392], [121.314464, 31.655585], [121.285899, 31.704047], [121.176288, 31.784323], [121.219301, 31.829473], [121.264065, 31.841077], [121.386133, 31.811736], [121.663223, 31.652352], [121.918966, 31.578463], [121.980086, 31.540296], [121.977851, 31.477771], [121.851374, 31.439179], [121.817326, 31.44665], [121.68463, 31.506807], [121.571544, 31.529364], [121.517456, 31.568392]]], [[[121.675554, 31.723573], [121.286418, 31.890589], [121.115087, 31.796334], [121.039935, 31.819332], [120.977817, 31.814365], [120.940564, 31.844647], [120.941417, 31.892524], [120.919281, 31.899359], [120.8370121613783, 32.0], [121.764366, 31.995287], [121.821945, 31.952486], [121.87496, 31.863723], [121.874687, 31.825903], [121.930383, 31.726714], [121.914842, 31.706434], [121.817306, 31.690949], [121.675554, 31.723573]]], [[[120.2671, 31.948676], [120.175873, 31.936672], [120.090099, 31.955024], [120.0097433871933, 32.0], [120.33250860707794, 32.0], [120.2671, 31.948676]]], [[[121.874848, 18.900824], [121.853852, 18.923489], [121.892589, 18.996487], [121.946625, 19.012193], [121.989106, 18.949123], [121.962576, 18.938666], [121.875011, 18.83039], [121.834158, 18.834296], [121.841075, 18.86815], [121.874848, 18.900824]]], [[[121.982921, 19.575344], [121.997895, 19.560289], [121.978038, 19.498847], [121.947113, 19.496772], [121.898204, 19.53677], [121.900238, 19.559231], [121.982921, 19.575344]]], [[[122.019298, 20.486477], [122.0324, 20.464057], [121.963715, 20.406643], [121.971202, 20.368476], [121.92213, 20.354153], [121.922374, 20.393297], [121.965994, 20.460639], [122.019298, 20.486477]]], [[[121.934825, 21.073228], [121.936697, 21.065619], [121.929698, 21.064521], [121.934825, 21.073228]]], [[[121.947439, 21.116156], [121.954275, 21.118394], [121.949067, 21.106879], [121.947439, 21.116156]]], [[[123.769867, 24.418362], [123.814708, 24.39175], [123.934418, 24.367499], [123.936046, 24.341457], [123.873057, 24.258246], [123.668224, 24.296617], [123.683767, 24.323472], [123.742361, 24.319729], [123.769867, 24.418362]]], [[[122.955577, 24.473131], [123.016368, 24.469794], [122.998383, 24.439521], [122.93865, 24.444241], [122.955577, 24.473131]]], [[[124.143077, 24.384914], [124.122732, 24.414293], [124.07838, 24.435492], [124.129161, 24.469387], [124.156505, 24.441636], [124.211925, 24.446967], [124.314464, 24.587307], [124.332286, 24.571031], [124.273936, 24.487942], [124.241873, 24.363715], [124.211925, 24.337104], [124.14031, 24.341986], [124.122244, 24.360582], [124.143077, 24.384914]]], [[[125.358246, 24.78262], [125.404633, 24.778388], [125.452647, 24.74494], [125.3838, 24.726955], [125.2588, 24.733385], [125.27475, 24.856431], [125.260265, 24.885199], [125.294444, 24.869574], [125.358246, 24.78262]]], [[[125.168142, 24.800971], [125.140147, 24.816392], [125.163585, 24.854641], [125.210785, 24.836982], [125.205251, 24.804999], [125.168142, 24.800971]]], [[[123.606293, 25.739], [123.600434, 25.739366], [123.602794, 25.745469], [123.606293, 25.739]]], [[[123.511485, 25.758083], [123.531423, 25.773342], [123.545339, 25.761786], [123.511485, 25.758083]]], [[[123.671723, 25.929755], [123.673025, 25.928697], [123.672048, 25.927476], [123.671723, 25.929755]]], [[[121.943207, 29.161119], [121.958832, 29.108059], [121.935313, 29.062893], [121.888682, 29.072333], [121.900157, 29.093736], [121.868175, 29.147406], [121.903331, 29.166571], [121.943207, 29.161119]]], [[[122.032888, 29.730943], [122.068207, 29.779527], [122.114757, 29.78852], [122.122081, 29.7508], [122.18686, 29.673407], [122.162934, 29.654527], [122.16977, 29.675035], [122.127452, 29.669013], [122.092784, 29.725775], [122.04005, 29.716376], [122.032888, 29.730943]]], [[[122.295584, 29.77912], [122.2317, 29.836249], [122.271169, 29.846829], [122.312022, 29.829047], [122.30836, 29.776272], [122.295584, 29.77912]]], [[[122.330089, 29.958238], [122.406749, 29.952704], [122.395193, 29.922065], [122.408051, 29.899848], [122.382823, 29.864732], [122.395193, 29.833319], [122.357107, 29.861721], [122.367361, 29.895901], [122.325206, 29.927883], [122.330089, 29.958238]]], [[[121.933604, 29.921332], [121.959972, 29.953192], [121.992442, 29.908271], [121.974132, 29.899848], [121.933604, 29.921332]]], [[[121.973399, 30.059963], [121.980805, 30.090074], [121.963145, 30.142401], [122.103282, 30.143704], [122.256114, 30.068183], [122.289561, 30.067328], [122.326671, 30.01081], [122.306977, 29.997219], [122.29363, 29.933783], [122.184744, 29.994452], [122.077403, 30.017646], [122.010509, 30.000312], [122.012218, 30.031928], [121.973399, 30.059963]]], [[[122.329112, 30.239081], [122.277599, 30.235541], [122.323985, 30.272162], [122.407725, 30.265937], [122.395844, 30.239447], [122.380626, 30.263739], [122.329112, 30.239081]]], [[[122.203868, 30.291409], [122.231944, 30.277737], [122.202322, 30.241929], [122.137706, 30.254625], [122.073578, 30.291409], [122.211436, 30.346625], [122.23878, 30.313137], [122.203868, 30.291409]]], [[[122.369151, 30.476996], [122.374685, 30.457343], [122.410981, 30.452135], [122.423106, 30.414944], [122.347992, 30.435981], [122.285411, 30.422065], [122.272797, 30.469468], [122.28712, 30.48314], [122.337413, 30.458482], [122.369151, 30.476996]]], [[[122.52475, 30.701809], [122.431977, 30.697984], [122.429942, 30.743069], [122.472911, 30.717231], [122.526378, 30.714179], [122.52475, 30.701809]]], [[[127.353526, 26.153998], [127.346202, 26.206366], [127.364106, 26.22134], [127.361095, 26.164008], [127.353526, 26.153998]]], [[[126.810313, 26.342515], [126.7824, 26.304511], [126.759939, 26.334418], [126.697765, 26.369045], [126.769867, 26.388007], [126.801443, 26.367662], [126.810313, 26.342515]]], [[[128.138357, 26.554023], [128.055919, 26.550482], [127.947276, 26.451158], [127.851736, 26.44123], [127.838878, 26.425238], [127.864757, 26.40648], [127.878266, 26.351874], [127.919932, 26.309638], [127.828298, 26.31623], [127.771007, 26.216498], [127.775401, 26.185126], [127.823578, 26.186754], [127.796886, 26.139716], [127.775727, 26.121772], [127.754893, 26.125312], [127.725352, 26.089586], [127.651703, 26.084377], [127.638194, 26.214748], [127.677745, 26.230618], [127.741873, 26.320543], [127.722504, 26.429918], [127.805186, 26.447577], [127.830577, 26.48843], [127.937511, 26.532131], [127.960216, 26.564114], [127.955903, 26.594794], [127.88559, 26.620185], [127.878266, 26.694525], [127.987315, 26.692939], [128.001231, 26.680243], [127.995616, 26.639228], [128.057384, 26.644761], [128.111095, 26.674018], [128.111339, 26.703437], [128.225922, 26.800971], [128.255056, 26.886298], [128.331391, 26.813422], [128.337657, 26.764309], [128.308116, 26.700873], [128.243337, 26.633287], [128.158865, 26.618801], [128.132091, 26.581244], [128.145763, 26.573432], [128.138357, 26.554023]]], [[[127.236827, 26.579169], [127.208832, 26.581977], [127.222179, 26.598944], [127.236827, 26.579169]]], [[[127.754649, 26.728583], [127.809825, 26.735419], [127.811209, 26.706977], [127.758556, 26.712877], [127.754649, 26.728583]]], [[[128.444347, 27.062567], [128.454845, 27.028754], [128.431407, 27.021674], [128.396251, 27.049018], [128.444347, 27.062567]]], [[[127.975759, 27.03974], [127.925792, 27.009752], [127.995372, 27.091742], [127.975759, 27.03974]]], [[[128.702485, 27.451606], [128.613129, 27.364325], [128.559906, 27.350735], [128.526866, 27.371894], [128.538422, 27.417629], [128.618826, 27.415595], [128.702485, 27.451606]]], [[[128.878917, 27.824774], [128.894542, 27.891303], [128.947032, 27.91413], [128.999522, 27.802802], [129.024669, 27.786078], [129.024262, 27.756578], [128.976329, 27.695502], [128.929454, 27.686713], [128.89088, 27.741889], [128.899262, 27.769517], [128.878917, 27.824774]]], [[[128.243419, 27.857245], [128.241547, 27.845364], [128.229828, 27.868964], [128.243419, 27.857245]]], [[[129.221446, 28.099107], [129.180837, 28.190253], [129.227712, 28.195258], [129.221528, 28.176011], [129.269298, 28.174872], [129.251801, 28.143785], [129.296641, 28.119574], [129.325531, 28.123481], [129.350434, 28.086493], [129.323985, 28.078599], [129.300792, 28.100531], [129.279145, 28.077094], [129.263031, 28.099107], [129.221446, 28.099107]]], [[[129.467947, 28.215766], [129.406505, 28.184475], [129.401541, 28.163316], [129.351817, 28.160549], [129.375987, 28.119574], [129.286632, 28.177924], [129.269298, 28.229438], [129.242442, 28.214301], [129.145763, 28.249945], [129.162852, 28.262641], [129.270844, 28.255357], [129.290375, 28.284084], [129.253673, 28.284573], [129.227712, 28.304592], [129.263927, 28.328843], [129.331309, 28.366034], [129.450938, 28.392035], [129.475352, 28.421291], [129.516368, 28.393297], [129.533458, 28.430487], [129.626231, 28.482733], [129.616466, 28.438544], [129.644054, 28.439765], [129.67335, 28.482733], [129.673106, 28.509833], [129.698009, 28.494859], [129.715994, 28.429145], [129.619314, 28.400784], [129.498871, 28.287502], [129.447439, 28.29092], [129.447765, 28.266303], [129.420177, 28.249945], [129.467947, 28.215766]]], [[[130.0, 28.35547291828949], [129.995453, 28.29092], [129.956554, 28.284817], [129.913585, 28.297105], [130.0, 28.35547291828949]]], [[[129.612315, 29.443345], [129.59962, 29.443345], [129.587413, 29.458238], [129.608084, 29.469224], [129.612315, 29.443345]]], [[[129.714854, 29.654527], [129.745942, 29.661038], [129.743826, 29.622301], [129.721039, 29.606147], [129.714854, 29.654527]]], [[[129.927257, 29.825873], [129.863402, 29.824607], [129.832772, 29.873078], [129.850981, 29.88673], [129.888682, 29.877509], [129.897419, 29.846915], [129.927257, 29.825873]]], [[[129.554454, 29.897528], [129.539887, 29.889879], [129.528575, 29.908922], [129.543305, 29.908149], [129.554454, 29.897528]]], [[[129.92199, 30.00473], [129.945323, 29.961615], [129.900645, 29.972561], [129.909028, 29.999335], [129.92199, 30.00473]]], [[[129.93214, 30.851752], [129.958263, 30.836982], [129.939464, 30.813422], [129.903982, 30.834418], [129.93214, 30.851752]]], [[[129.428233, 30.846422], [129.433849, 30.84455], [129.429454, 30.840888], [129.428233, 30.846422]]], [[[129.676298, 31.666966], [129.716645, 31.730373], [129.753591, 31.743801], [129.783214, 31.799628], [129.799571, 31.745429], [129.776134, 31.729478], [129.72934, 31.644232], [129.695977, 31.621447], [129.659374, 31.641935], [129.655381, 31.659785], [129.676298, 31.666966]]], [[[129.909923, 31.845689], [129.913422, 31.867743], [129.928477, 31.863918], [129.92921, 31.826728], [129.889903, 31.810736], [129.85906, 31.823676], [129.850434, 31.857408], [129.820567, 31.845526], [129.844981, 31.880601], [129.909923, 31.845689]]]]}}]}