{"type": "FeatureCollection", "features": [{"type": "Feature", "properties": {"name": "Naha, Japan"}, "geometry": {"type": "Point", "coordinates": [127.68055019149426, 26.21241384638718]}}, {"type": "Feature", "properties": {"name": "Toucheng, Taiwan"}, "geometry": {"type": "Point", "coordinates": [121.80145279380189, 24.863592858849902]}}, {"type": "Feature", "properties": {"name": "Nanhui, China"}, "geometry": {"type": "Point", "coordinates": [121.92506915087795, 30.864713861582327]}}, {"type": "Feature", "properties": {"name": "La Union, Philippines"}, "geometry": {"type": "Point", "coordinates": [120.38963738769527, 16.582590683428545]}}, {"type": "Feature", "properties": {"name": "Lingang, China"}, "geometry": {"type": "Point", "coordinates": [121.89608163301598, 30.935661747314708]}}, {"type": "Feature", "properties": {"name": "Pa Li, Taiwan"}, "geometry": {"type": "Point", "coordinates": [121.38319137135348, 25.149983824511253]}}, {"type": "Feature", "properties": {"name": "Tseung Kwan O, China"}, "geometry": {"type": "Point", "coordinates": [114.25868469966966, 22.31829585896108]}}, {"type": "Feature", "properties": {"name": "Tanshui, Taiwan"}, "geometry": {"type": "Point", "coordinates": [121.46258584635854, 25.18136115573805]}}, {"type": "Feature", "properties": {"name": "Fangshan, Taiwan"}, "geometry": {"type": "Point", "coordinates": [120.66209813218148, 22.249258581382197]}}, {"type": "Feature", "properties": {"name": "Chung Hom Kok, China"}, "geometry": {"type": "Point", "coordinates": [114.2030206766037, 22.222049985803473]}}, {"type": "Feature", "properties": {"name": "Dawu, Taiwan"}, "geometry": {"type": "Point", "coordinates": [120.88978000000047, 22.340450000000153]}}, {"type": "Feature", "properties": {"name": "Shantou, China"}, "geometry": {"type": "Point", "coordinates": [116.67547986258927, 23.354554663214007]}}, {"type": "Feature", "properties": {"name": "Fuzhou, China"}, "geometry": {"type": "Point", "coordinates": [119.61855638196424, 25.78006638728176]}}, {"type": "Feature", "properties": {"name": "Guningtou, Taiwan"}, "geometry": {"type": "Point", "coordinates": [118.30711933172064, 24.476142461748875]}}, {"type": "Feature", "properties": {"name": "Lake Ci, Taiwan"}, "geometry": {"type": "Point", "coordinates": [118.28973653153483, 24.45552056717078]}}, {"type": "Feature", "properties": {"name": "Dadeng Island, China"}, "geometry": {"type": "Point", "coordinates": [118.30096699232894, 24.55673096336322]}}, {"type": "Feature", "properties": {"name": "Guanyin Mountain, China"}, "geometry": {"type": "Point", "coordinates": [118.18895535292904, 24.493917245738405]}}, {"type": "Feature", "properties": {"name": "Chongming, China"}, "geometry": {"type": "Point", "coordinates": [121.39520308159317, 31.619883221433906]}}, {"type": "Feature", "properties": {"name": "Tong Fuk, China"}, "geometry": {"type": "Point", "coordinates": [113.93212243100953, 22.22738364829369]}}, {"type": "Feature", "properties": {"name": "Lantau Island, China"}, "geometry": {"type": "Point", "coordinates": [113.94833335702553, 22.271491582355683]}}, {"type": "Feature", "properties": {"name": "Ballesteros, Philippines"}, "geometry": {"type": "Point", "coordinates": [121.51395299746949, 18.40940773757574]}}, {"type": "Feature", "properties": {"name": "Deep Water Bay, China"}, "geometry": {"type": "Point", "coordinates": [114.18397772134277, 22.24943935172405]}}, {"type": "Feature", "properties": {"name": "Itoman, Japan"}, "geometry": {"type": "Point", "coordinates": [127.68810080000024, 26.114886979999657]}}, {"type": "Feature", "properties": {"name": "Tarama, Japan"}, "geometry": {"type": "Point", "coordinates": [124.7002651000001, 24.66870033000032]}}, {"type": "Feature", "properties": {"name": "Yonaguni, Japan"}, "geometry": {"type": "Point", "coordinates": [122.99077429999956, 24.457215450000316]}}, {"type": "Feature", "properties": {"name": "Hateruma, Japan"}, "geometry": {"type": "Point", "coordinates": [123.77844360000016, 24.06001916000044]}}, {"type": "Feature", "properties": {"name": "Yomitan, Japan"}, "geometry": {"type": "Point", "coordinates": [127.74376439999966, 26.402044689999958]}}, {"type": "Feature", "properties": {"name": "Aguni, Japan"}, "geometry": {"type": "Point", "coordinates": [127.22899780000009, 26.587226800000273]}}, {"type": "Feature", "properties": {"name": "Kumejima, Japan"}, "geometry": {"type": "Point", "coordinates": [126.77534649999994, 26.353132190000167]}}, {"type": "Feature", "properties": {"name": "Ama, Japan"}, "geometry": {"type": "Point", "coordinates": [127.292292, 26.230968589999883]}}, {"type": "Feature", "properties": {"name": "Tokashiki, Japan"}, "geometry": {"type": "Point", "coordinates": [127.36352570000041, 26.19683555999985]}}, {"type": "Feature", "properties": {"name": "Yaese, Japan"}, "geometry": {"type": "Point", "coordinates": [127.72859249999958, 26.134756180000213]}}, {"type": "Feature", "properties": {"name": "Gusukube, Japan"}, "geometry": {"type": "Point", "coordinates": [125.38733299999983, 24.751502030000356]}}, {"type": "Feature", "properties": {"name": "Shiraho, Japan"}, "geometry": {"type": "Point", "coordinates": [124.2450912999995, 24.388365950000072]}}, {"type": "Feature", "properties": {"name": "Kuroshima, Japan"}, "geometry": {"type": "Point", "coordinates": [129.93441360000014, 30.832460340000207]}}, {"type": "Feature", "properties": {"name": "Cape D\u2019Aguilar, China"}, "geometry": {"type": "Point", "coordinates": [114.26028099999986, 22.208065]}}, {"type": "Feature", "properties": {"name": "Luna, Philippines"}, "geometry": {"type": "Point", "coordinates": [120.35484390000022, 16.830712289999493]}}, {"type": "Feature", "properties": {"name": "Bauang, Philippines"}, "geometry": {"type": "Point", "coordinates": [120.35558309999966, 16.51402480000008]}}, {"type": "Feature", "properties": {"name": "Wujie, Taiwan"}, "geometry": {"type": "Point", "coordinates": [121.83117558189409, 24.66043890836769]}}, {"type": "Feature", "properties": {"name": "Dongyin, Taiwan"}, "geometry": {"type": "Point", "coordinates": [120.4929700000004, 26.367330000000443]}}, {"type": "Feature", "properties": {"name": "Nangan, Taiwan"}, "geometry": {"type": "Point", "coordinates": [119.93435, 26.15516]}}, {"type": "Feature", "properties": {"name": "Xiju, Taiwan"}, "geometry": {"type": "Point", "coordinates": [119.93907578761032, 25.973144107820715]}}, {"type": "Feature", "properties": {"name": "Nago, Japan"}, "geometry": {"type": "Point", "coordinates": [127.97732749763631, 26.591537746166992]}}, {"type": "Feature", "properties": {"name": "Zhuhai, China"}, "geometry": {"type": "Point", "coordinates": [113.57672717496287, 22.270712131393918]}}, {"type": "Feature", "properties": {"name": "Nakadomari, Japan"}, "geometry": {"type": "Point", "coordinates": [126.74738407138204, 26.34876348107905]}}, {"type": "Feature", "properties": {"name": "Hirara, Japan"}, "geometry": {"type": "Point", "coordinates": [125.30132346307869, 24.794621700913318]}}, {"type": "Feature", "properties": {"name": "Komesu, Japan"}, "geometry": {"type": "Point", "coordinates": [127.70079480862088, 26.087758925965506]}}, {"type": "Feature", "properties": {"name": "Chai Wan, China"}, "geometry": {"type": "Point", "coordinates": [114.23935699999967, 22.26885000000032]}}, {"type": "Feature", "properties": {"name": "Claveria, Philippines"}, "geometry": {"type": "Point", "coordinates": [121.08238200000135, 18.606230000000362]}}, {"type": "Feature", "properties": {"name": "Jincheng Township, Taiwan"}, "geometry": {"type": "Point", "coordinates": [118.31584, 24.413410000000344]}}, {"type": "Feature", "properties": {"name": "Huxi Township, Taiwan"}, "geometry": {"type": "Point", "coordinates": [119.65616000000064, 23.573629999999714]}}, {"type": "Feature", "properties": {"name": "Tainan, Taiwan"}, "geometry": {"type": "Point", "coordinates": [120.18086199999875, 22.99721]}}, {"type": "Feature", "properties": {"name": "Taoyuan, Taiwan"}, "geometry": {"type": "Point", "coordinates": [121.31111109999966, 24.98888889999996]}}, {"type": "Feature", "properties": {"name": "Magong, Taiwan"}, "geometry": {"type": "Point", "coordinates": [119.5745100000003, 23.571549999999434]}}, {"type": "Feature", "properties": {"name": "Xiyu Township, Taiwan"}, "geometry": {"type": "Point", "coordinates": [119.51201999999984, 23.60192]}}, {"type": "Feature", "properties": {"name": "Beigan, Taiwan"}, "geometry": {"type": "Point", "coordinates": [119.98859, 26.225399999999755]}}, {"type": "Feature", "properties": {"name": "Yuanli, Taiwan"}, "geometry": {"type": "Point", "coordinates": [120.64548999999985, 24.432460000000326]}}, {"type": "Feature", "properties": {"name": "Jinhu Township, Taiwan"}, "geometry": {"type": "Point", "coordinates": [118.43943999999946, 24.437479999999816]}}, {"type": "Feature", "properties": {"name": "Budai, Taiwan"}, "geometry": {"type": "Point", "coordinates": [120.17046999999953, 23.362789999999872]}}, {"type": "Feature", "properties": {"name": "Mamu, China"}, "geometry": {"type": "Point", "coordinates": [121.94569495659735, 30.17189746945603]}}, {"type": "Feature", "properties": {"name": "Xiepu, China"}, "geometry": {"type": "Point", "coordinates": [121.63985462881675, 30.043111146660067]}}]}