{"type": "FeatureCollection", "features": [{"type": "Feature", "properties": {"id": "i-am-cable", "name": "I-AM Cable"}, "geometry": {"type": "MultiLineString", "coordinates": [[[118.7265723887804, 16.0], [118.79999007691224, 17.81054639660834], [119.5708391396146, 18.516117231747454], [120.14998912056028, 19.025415878074014], [121.17742979836576, 19.649517415292912], [122.9440789374799, 20.680547036291784], [124.97763468202892, 22.0068603894298], [125.68750771631929, 23.606545664540995], [126.39045223093163, 25.57323317368417], [126.97650517696137, 26.30123502337342], [127.70079480862088, 28.509888502156297], [127.95091132809287, 29.540507745394493], [128.52566678030564, 30.091027829845515]], [[128.52566678030564, 30.091027829845515], [127.68084378563216, 31.39196231991538], [127.32517934949227, 31.656682201919793]], [[127.32517934949227, 31.656682201919793], [127.47461911908, 32.0]], [[127.32517934949227, 31.656682201919793], [127.64009863078796, 32.0]], [[128.52566678030564, 30.091027829845515], [130.0, 29.359960357002947]]]}}, {"type": "Feature", "properties": {"id": "asia-united-gateway-east-aug-east", "name": "Asia United Gateway East (AUG East)"}, "geometry": {"type": "MultiLineString", "coordinates": [[[118.58544386331282, 16.0], [118.64270296223017, 17.115244976607663]], [[118.64270296223017, 17.115244976607663], [118.68094913578804, 17.860172049184143], [119.63564587191297, 18.712816516277243], [120.07376012753181, 19.097338103155888], [120.15077449851793, 19.766307370739014], [120.60995966425898, 21.52866349547806], [121.00227992030457, 21.515456423470585], [122.27260117306696, 22.41379429784117], [122.81360897983394, 24.28586318606878], [125.35516121382157, 27.94597135692341], [128.9423827125133, 30.00041066943345], [130.0, 29.470675949151136]], [[126.4968750998616, 32.0], [127.09744513582127, 30.889576581749527], [128.20623341284528, 29.582151688140414]], [[121.81483169057424, 24.644044899818205], [122.54589674250994, 23.362789999999872]], [[120.88977859589048, 22.340450000000153], [121.56833222233168, 21.924689276263475]], [[118.6425127475267, 17.11527658709149], [118.64270296223017, 17.115244976607663]], [[118.64270296223017, 17.115244976607663], [120.35483897484683, 16.830716773770945]]]}}, {"type": "Feature", "properties": {"id": "candle", "name": "Candle"}, "geometry": {"type": "MultiLineString", "coordinates": [[[124.72078655937679, 16.0], [125.13103838718632, 22.026048616021743]], [[125.13103838718632, 22.026048616021743], [125.82482710987084, 23.605964017138188], [127.32790884999972, 24.81255270367667], [130.0, 26.151640751936814]], [[124.70338539586164, 16.18456011212011], [124.14876118065267, 16.0]], [[121.80145279439779, 24.863504254255204], [123.10327422030367, 23.605964017138188], [125.13103838718632, 22.026048616021743]]]}}, {"type": "Feature", "properties": {"id": "taiwan-matsu-no-4", "name": "Taiwan-Matsu No.4"}, "geometry": {"type": "LineString", "coordinates": [[121.46258819070279, 25.168986122701572], [121.09588688738157, 25.678720354955857], [120.49296999999949, 26.36733136664364], [120.32426131491239, 26.15516], [119.93434927272565, 26.15516], [119.96093577202058, 26.07423794659616], [119.96093577202058, 26.032479263492196], [119.93907578761032, 25.967044518254372]]}}, {"type": "Feature", "properties": {"id": "e2a", "name": "E2A"}, "geometry": {"type": "MultiLineString", "coordinates": [[[121.80144795065142, 24.863504112487785], [122.87827437969564, 25.925523115093068], [129.44637107969632, 28.381232304422188]], [[129.44637107969632, 28.381232304422188], [130.0, 28.424389329002707]], [[127.63759578985174, 32.0], [127.22759354455998, 31.045550176016285], [129.44637107969632, 28.381232304422188]]]}}, {"type": "Feature", "properties": {"id": "orca", "name": "ORCA"}, "geometry": {"type": "LineString", "coordinates": [[130.0, 24.04893331586081], [128.69998306366443, 23.91710129093513], [125.83455068834256, 23.79499635869734], [125.08449263258076, 23.798418307988157], [123.07498704846441, 24.007054825363046], [121.8014540000001, 24.863576000000307]]}}, {"type": "Feature", "properties": {"id": "okinawa-miyakojima-ishigaki", "name": "Okinawa-Miyakojima-Ishigaki"}, "geometry": {"type": "LineString", "coordinates": [[124.2450912999995, 24.388365950000072], [124.6499859327203, 24.32780311165181], [125.09998561393637, 24.417474698660392], [125.38733299999983, 24.751502030000356], [125.99998497636834, 24.915858493558826], [127.23748409911637, 25.653336613276053], [127.72859249999958, 26.134756180000213]]}}, {"type": "Feature", "properties": {"id": "mishima-village", "name": "Mishima Village"}, "geometry": {"type": "MultiLineString", "coordinates": [[[129.93441360000014, 30.832460340000207], [130.0, 30.825345964090907]], [[129.93441360000014, 30.832460340000207], [130.0, 30.919496713941086]]]}}, {"type": "Feature", "properties": {"id": "okinawa-remote-islands", "name": "Okinawa Remote Islands"}, "geometry": {"type": "MultiLineString", "coordinates": [[[127.22899780000009, 26.587226800000273], [127.74376439999966, 26.402044689999958]], [[127.292292, 26.230968589999883], [127.36352570000041, 26.19683555999985]], [[126.77534649999994, 26.353132190000167], [126.78748441790049, 26.461843796188983], [127.22899780000009, 26.587226800000273]], [[122.99077429999956, 24.457215450000316], [123.74998656790437, 24.73717827217609], [124.7002651000001, 24.66870033000032], [125.2687354920083, 25.55188275942587], [126.33105998708565, 25.853235981933878], [127.23748409911637, 25.957179978764344], [127.68810080000024, 26.114886979999657]], [[122.99077429999956, 24.457215450000316], [123.33748686191112, 24.270840146005792], [123.77844360000016, 24.06001916000044]]]}}, {"type": "Feature", "properties": {"id": "minamidaito-island", "name": "Minamidaito Island"}, "geometry": {"type": "LineString", "coordinates": [[127.68810080000024, 26.114886979999657], [128.0249835418403, 26.005947168900573], [130.0, 25.740929669497227]]}}, {"type": "Feature", "properties": {"id": "kitadaito-island", "name": "Kitadaito Island"}, "geometry": {"type": "LineString", "coordinates": [[127.72859249999958, 26.134756180000213], [128.0249835418403, 26.05828756029904], [130.0, 25.880709671675135]]}}, {"type": "Feature", "properties": {"id": "tko-connect", "name": "TKO Connect"}, "geometry": {"type": "MultiLineString", "coordinates": [[[114.2586832940168, 22.31829267897149], [114.24374330400435, 22.296070300061047], [114.23935699999967, 22.26885000000032]], [[114.2586832940168, 22.31829267897149], [114.25781079403889, 22.296070300061047], [114.23935699999967, 22.26885000000032]]]}}, {"type": "Feature", "properties": {"id": "yui", "name": "YUI"}, "geometry": {"type": "MultiLineString", "coordinates": [[[124.24509621895214, 24.38836538952259], [125.09998561393637, 24.00705710909988], [125.7749851357603, 24.01990020343248], [127.68748377735349, 25.55188275942587], [127.79998370004047, 25.855985466072205], [127.68080378506454, 26.21236926863903]], [[125.29998547165854, 24.7946200137949], [125.43748537425243, 25.179151748812224], [126.3374847372803, 26.260240971577822], [126.74738444630759, 26.348765491642183]]]}}, {"type": "Feature", "properties": {"id": "tpu", "name": "TPU"}, "geometry": {"type": "MultiLineString", "coordinates": [[[120.88201985138694, 22.34569808206579], [122.8730238593579, 20.789874953693833]], [[122.8730238593579, 20.789874953693833], [130.0, 18.757826089692553]], [[122.8730238593579, 20.789874953693833], [121.74802465572199, 19.34577048503237], [121.07814990718249, 18.601843893825777]]]}}, {"type": "Feature", "properties": {"id": "sihanoukville-hong-kong-shv-hk", "name": "Sihanoukville-Hong Kong (SHV-HK)"}, "geometry": {"type": "LineString", "coordinates": [[112.0, 16.73834362829836], [112.72499438049614, 18.251816319028222], [113.17499406171221, 20.796306105108872], [114.2586832940168, 22.31829267897149]]}}, {"type": "Feature", "properties": {"id": "taiwan-penghu-kinmen-matsu-no-2-tpkm2", "name": "Taiwan Penghu Kinmen Matsu No.2 (TPKM2)"}, "geometry": {"type": "MultiLineString", "coordinates": [[[120.17047428762343, 23.362789999999872], [119.92498927935526, 23.43629494132288], [119.65616428762347, 23.573629999999714]], [[120.64548999999985, 24.432462601860976], [120.26248904026849, 24.361968609765935], [118.79999007631633, 24.361968609765935], [118.43944000000037, 24.43748260175769]], [[121.4626481900644, 25.181604223404467], [121.27498832360028, 25.742038029757644], [120.71248872148438, 26.39468192538876], [120.49296999999949, 26.36733136664364]]]}}, {"type": "Feature", "properties": {"id": "ningbo-zhoushan-cable", "name": "Ningbo-Zhoushan Cable"}, "geometry": {"type": "LineString", "coordinates": [[121.63985462881675, 30.043111146660067], [121.72498800422028, 30.158479119660896], [121.94569495659735, 30.17189746945603]]}}, {"type": "Feature", "properties": {"id": "asia-link-cable-alc", "name": "Asia Link Cable (ALC)"}, "geometry": {"type": "MultiLineString", "coordinates": [[[114.97499278657615, 18.265170800514795], [116.99999135204831, 18.038005439608753], [119.92498927995224, 16.857467609772335], [120.35483897484683, 16.830716773770945]], [[114.7499929453724, 17.12195969020027], [116.99999135204831, 16.857467609772335], [119.92498927995224, 16.749771315644697], [120.35557897432248, 16.51402516186766]], [[114.7499929459683, 19.104405475930452], [113.84999358353615, 18.678647022154717], [112.0, 18.562257866661966]], [[114.20292333351767, 22.22205041973683], [114.41249318505615, 20.796306105108872], [114.7499929459683, 19.104405475930452]], [[114.7499929459683, 19.104405475930452], [114.97499278657615, 18.265170800514795]], [[114.97499278657615, 18.265170800514795], [114.7499929453724, 17.12195969020027]], [[114.7499929453724, 17.12195969020027], [114.42367423159871, 16.0]]]}}, {"type": "Feature", "properties": {"id": "taiwan-penghu-kinmen-matsu-no-3-tpkm3", "name": "Taiwan Penghu Kinmen Matsu No.3 (TPKM3)"}, "geometry": {"type": "MultiLineString", "coordinates": [[[118.31584640000032, 24.413418899999478], [118.46249031540438, 24.310716907075776], [119.24998975753242, 23.79706577881128], [119.51201957190797, 23.60192], [119.57625399718488, 23.573729363608198], [119.65615957190879, 23.573629999999714], [119.69998943874958, 23.43629494132288], [120.03748919965736, 23.281375912673997], [120.18086199999966, 22.99721]], [[119.93434927272565, 26.15516], [120.26248903788452, 25.75470426341523], [120.93748856149652, 25.247006432636635], [121.31110780616903, 24.98888889999996]], [[119.93434927272565, 26.15516], [119.86873931920438, 26.041442343792944], [119.93907506033597, 25.973144107820715]], [[119.93434927272565, 26.15516], [119.98859609999977, 26.225407299999837], [120.14998911996437, 26.243424884980424], [120.37498896057242, 26.29386583975231], [120.4929700000004, 26.367336499999546]]]}}, {"type": "Feature", "properties": {"id": "sea-h2x", "name": "SEA-H2X"}, "geometry": {"type": "MultiLineString", "coordinates": [[[113.46141816238618, 16.0], [113.84999358294024, 17.10851996079568]], [[113.84999358294024, 17.10851996079568], [114.07499342414418, 18.251816319028222]], [[114.07499342414418, 18.251816319028222], [113.96249350384026, 20.796306105108872], [114.2586832940168, 22.31829267897149]], [[114.07499342414418, 18.251816319028222], [112.0, 18.277077815905024]], [[113.84999358294024, 17.10851996079568], [116.99999135204831, 16.749771315644697], [119.92498927995224, 16.642014062854003], [120.320938998862, 16.61589414713403]]]}}, {"type": "Feature", "properties": {"id": "topaz", "name": "Topaz"}, "geometry": {"type": "LineString", "coordinates": [[130.0, 26.387423402574697], [128.07498350582398, 25.417654892229358], [127.2086755257747, 24.98888889999996], [125.82638654830522, 23.911975884765656], [125.10249946499951, 23.921926709295846], [123.62010384920251, 24.25635955827758], [122.83558991464656, 24.751502030000356], [122.166144575792, 24.85696748385125], [121.80144795065142, 24.863504112487785]]}}, {"type": "Feature", "properties": {"id": "apricot", "name": "Apricot"}, "geometry": {"type": "MultiLineString", "coordinates": [[[130.0, 17.637345030208675], [126.44998465639262, 18.251816319028222], [127.34998401942048, 19.24608308700458]], [[127.34998401942048, 19.24608308700458], [130.0, 20.38722716505633]], [[127.34998401942048, 19.24608308700458], [125.99998497636834, 21.32123529551186], [124.14876628719325, 23.757798070792454], [122.84998720785636, 24.63495976683041], [121.80144795065142, 24.863504112487785]]]}}, {"type": "Feature", "properties": {"id": "apricot", "name": "Apricot"}, "geometry": {"type": "MultiLineString", "coordinates": [[[125.65161392061833, 16.0], [125.54998529455636, 16.24638821747719]], [[125.54998529455636, 16.24638821747719], [126.44998465639262, 18.251816319028222]], [[125.54998529455636, 16.24638821747719], [124.78132790512132, 16.0]]]}}, {"type": "Feature", "properties": {"id": "asia-direct-cable-adc", "name": "Asia Direct Cable (ADC)"}, "geometry": {"type": "MultiLineString", "coordinates": [[[130.0, 22.376720086898978], [125.99998497636834, 21.111485983488812], [122.84998720785636, 20.269544035929588], [121.04998848299225, 20.05833455139623], [120.14998912056028, 20.05833455139623], [116.99999135204831, 19.316876111628712]], [[116.99999135204831, 19.316876111628712], [115.19999262718419, 18.251816319028222]], [[115.19999262718419, 18.251816319028222], [114.61267541130613, 16.0]], [[115.19999262718419, 18.251816319028222], [114.52499310536027, 20.796306105108872], [114.20292333351767, 22.22205041973683]], [[116.99999135204831, 19.316876111628712], [117.22499119206026, 19.95262290516439], [117.22499119206026, 20.796306105108872], [116.99999135204831, 22.469443964829516], [116.67753158048176, 23.355006811273547]]]}}, {"type": "Feature", "properties": {"id": "hainan-to-hong-kong-express-h2he", "name": "Hainan to Hong Kong Express (H2HE)"}, "geometry": {"type": "MultiLineString", "coordinates": [[[113.57675158960345, 22.270716559591268], [113.73749366323221, 22.105110548108275]], [[113.73749366323221, 22.105110548108275], [114.07499342414418, 22.105110548108275], [114.20292333351767, 22.22205041973683]], [[112.0, 20.55233412092217], [112.83749430080026, 20.796306105108872], [113.56874378277615, 21.635297384859552], [113.68124370308026, 21.84429407917369], [113.73749366323221, 22.105110548108275]]]}}, {"type": "Feature", "properties": {"id": "okinawa-cellular-cable", "name": "Okinawa Cellular Cable"}, "geometry": {"type": "LineString", "coordinates": [[127.97728357563153, 26.591578968461], [127.79998370123228, 26.562513149236715], [127.57498386062441, 26.763586569619914], [127.68748378092835, 27.164665812813517], [128.4749832230562, 28.359233526108557], [128.69998306366443, 29.344566989489813], [129.1499827448803, 30.5144959597591], [129.5999824260964, 31.286738814391754], [130.0, 31.542730966586305]]}}, {"type": "Feature", "properties": {"id": "miyazaki-okinawa-cable-moc", "name": "Miyazaki-Okinawa Cable (MOC)"}, "geometry": {"type": "LineString", "coordinates": [[130.0, 27.996382095121138], [128.69998306366443, 26.562513149236715], [128.0249835418403, 26.1593079707739], [127.68084378563216, 26.212414126750428]]}}, {"type": "Feature", "properties": {"id": "japan-information-highway-jih", "name": "Japan Information Highway (JIH)"}, "geometry": {"type": "LineString", "coordinates": [[127.68084378563216, 26.212414126750428], [128.0249835418403, 26.1106045816533], [128.69998306366443, 26.36108632539156], [130.0, 27.79759674767927]]}}, {"type": "Feature", "properties": {"id": "southeast-asia-japan-cable-2-sjc2", "name": "Southeast Asia-Japan Cable 2 (SJC2)"}, "geometry": {"type": "MultiLineString", "coordinates": [[[114.13641768421026, 16.0], [114.52499310476436, 17.10851996079568], [114.7499929459683, 18.251816319028222]], [[114.7499929459683, 18.251816319028222], [116.99999135204831, 19.529070924350908], [120.14998912056028, 20.269544035929588]], [[120.14998912056028, 20.269544035929588], [121.04998848299225, 20.375041253465433], [122.84998720785636, 20.90143978523765], [124.87498577332833, 22.05298561667754], [125.7749851357603, 24.12261698700344], [126.22498481697637, 25.55188275942587]], [[126.22498481697637, 25.55188275942587], [126.67498449819227, 26.1593079707739], [128.24998338244836, 28.359233526108557]], [[128.24998338244836, 28.359233526108557], [129.5999824260964, 28.75448641587171]], [[129.5999824260964, 28.75448641587171], [130.0, 28.82014762008798]], [[114.7499929459683, 18.251816319028222], [114.29999326475222, 20.796306105108872], [114.20309333339704, 22.22214038855274]], [[120.14998912056028, 20.269544035929588], [120.48748888147225, 21.635297384859552], [120.66208875778415, 22.249168196123776]], [[129.5999824260964, 28.75448641587171], [129.37498258548837, 30.901396088515508], [129.1499827448803, 31.670513047087127], [129.1824464598265, 32.0]], [[128.24998338244836, 28.359233526108557], [127.12498417940834, 29.540507745394493], [125.7749851357603, 30.320465424761444], [124.6499859327203, 30.901396088515508], [122.84998720785636, 31.286738814391754], [122.17498768603225, 31.142418511463656], [121.89608788360773, 30.935661747314708]], [[126.22498481697637, 25.55188275942587], [123.74998657028833, 25.653336613276053], [122.84998720785636, 25.75470426341523], [121.94998784542422, 25.653336613276053], [121.4876881729218, 25.18162628187736]]]}}, {"type": "Feature", "properties": {"id": "jupiter", "name": "JUPITER"}, "geometry": {"type": "LineString", "coordinates": [[130.0, 19.462396253523774], [127.79998370123228, 17.395022634700517], [125.7648618745299, 16.0]]}}, {"type": "Feature", "properties": {"id": "new-cross-pacific-ncp-cable-system", "name": "New Cross Pacific (NCP) Cable System"}, "geometry": {"type": "MultiLineString", "coordinates": [[[130.0, 29.604541919883417], [128.24998338244836, 30.5144959597591]], [[128.24998338244836, 30.5144959597591], [125.99998497636834, 30.901396088515508]], [[125.99998497636834, 30.901396088515508], [122.17498768603225, 30.853118511880677], [121.92508786246776, 30.86475026744717], [121.89393788393856, 30.89950835597767], [121.89607788361477, 30.935660541111577]], [[125.99998497636834, 30.901396088515508], [124.19998625150441, 31.670513047087127], [122.84998720785636, 31.86180860227073], [121.94998784542422, 31.718374001887323], [121.39529823837174, 31.619800328867754]], [[128.24998338244836, 30.5144959597591], [128.24998338244836, 31.670513047087127], [128.31491081234063, 32.0]], [[130.0, 27.598447393251377], [128.69998306366443, 26.1593079707739], [127.34998402001638, 25.55188275942587], [125.99998497636834, 25.348717422116714], [124.19998625150441, 24.94136317175375], [122.84998720785636, 25.043329056612176], [122.17498768603225, 24.99235668767365], [121.80144795065142, 24.863504112487785]], [[121.89607788361477, 30.935660541111577], [121.61248808391635, 30.933567621605523], [121.27498832300438, 31.12636933176112], [121.27498832300438, 31.510798430049064], [121.39529823837174, 31.619800328867754]]]}}, {"type": "Feature", "properties": {"id": "faster", "name": "FASTER"}, "geometry": {"type": "LineString", "coordinates": [[130.0, 29.017091044477176], [129.5999824260964, 28.95155473219332], [128.24998338244836, 28.55704546571133], [122.84998720785636, 26.461843796188983], [121.94998784542422, 25.75470426341523], [121.46258819070279, 25.181712818924378]]}}, {"type": "Feature", "properties": {"id": "asia-america-gateway-aag-cable-system", "name": "Asia-America Gateway (AAG) Cable System"}, "geometry": {"type": "LineString", "coordinates": [[130.0, 16.979499438454663], [125.99998497636834, 18.251816319028222], [122.39998752664029, 18.891661584303154], [121.09574530038982, 19.019148713619977], [120.42074577856589, 18.593173653796047], [120.14998912056028, 16.965102599435927], [120.38973895071938, 16.582592330693284], [119.92498927995224, 16.965102599435927], [116.99999135204831, 18.251816319028222], [115.3124925474883, 19.529070924350908], [114.52499310536027, 20.375041253465433], [113.79374362338419, 21.635297384859552], [113.94911351331866, 22.271493895850078], [113.73749366323221, 21.635297384859552], [113.51249382262418, 20.796306105108872], [113.39999390232026, 18.251816319028222], [112.50109310128816, 16.0]]}}, {"type": "Feature", "properties": {"id": "apcn-2", "name": "APCN-2"}, "geometry": {"type": "MultiLineString", "coordinates": [[[128.58279314668286, 31.15762634730359], [128.4749832230562, 31.670513047087127], [128.5399106529486, 32.0]], [[128.98991033416462, 32.0], [128.92498290427227, 31.670513047087127], [129.1499827448803, 30.901396088515508]], [[112.1862031805769, 16.0], [113.17499406171221, 18.251816319028222], [113.39999390232026, 20.796306105108872], [113.68124370308026, 21.635297384859552], [113.94911351331866, 22.271493895850078], [114.24379330456497, 21.84429407917369], [115.19999262718419, 21.32123529551186], [116.54999167083223, 21.111485983488812], [116.59498604028498, 21.117775438667117]], [[116.59498604028498, 21.117775438667117], [118.79999007691224, 21.425997872385402], [121.02775554672928, 21.24799675992802], [122.84998720785636, 21.425997872385402], [123.74998657028833, 22.05298561667754], [124.6499859327203, 24.12261698700344], [124.77781629022972, 25.20530548533567]], [[124.77781629022972, 25.20530548533567], [124.81873581317637, 25.55188275942587], [124.98748569363227, 26.1593079707739], [124.6499859327203, 30.5144959597591], [122.84998720785636, 31.670513047087127], [121.94998784542422, 31.622627415989587], [121.39529823837174, 31.619800328867754], [121.94998784542422, 31.81402180002269], [122.65124432758329, 32.0]], [[124.4580734126133, 32.0], [128.58279314668286, 31.15762634730359]], [[128.58279314668286, 31.15762634730359], [129.1499827448803, 30.901396088515508]], [[129.1499827448803, 30.901396088515508], [130.0, 30.16765652399481]], [[130.0, 26.60309371250887], [128.69998306366443, 25.944535413791687], [127.34998402001638, 25.33600821718872], [125.99998497636834, 25.132479722461383], [125.09998561393637, 25.132479722461383], [124.77781629022972, 25.20530548533567]], [[124.77781629022972, 25.20530548533567], [122.84998720785636, 25.640659590796915], [121.94998784542422, 25.539194978687103], [121.46258819070279, 25.168986122701572], [121.94998784542422, 25.2342865621001], [122.28748760633636, 24.928611492263457], [122.62498736724832, 24.007054825363046], [122.17498768603225, 22.45644844059945], [121.02775554672928, 21.758259099599318], [120.12788799225589, 21.758259099599318], [118.79999007691224, 22.19628282803044], [118.34999039569617, 22.40445416506672], [117.2812411528083, 22.87169786996185], [116.67753158048176, 23.342095886292725], [116.77499151144026, 22.45644844059945], [116.59498604028498, 21.117775438667117]], [[116.59498604028498, 21.117775438667117], [116.54999167083223, 20.783159233732995], [115.64999230840026, 18.238460810952724], [115.06619920546419, 16.0]]]}}, {"type": "Feature", "properties": {"id": "flag-north-asia-loopreach-north-asia-loop", "name": "FLAG North Asia Loop/REACH North Asia Loop"}, "geometry": {"type": "MultiLineString", "coordinates": [[[121.02775554672928, 20.93310564677346], [118.79999007691224, 21.111485983488812], [116.54999167083223, 20.90143978523765], [115.19999262718419, 21.111485983488812], [114.13129338426104, 21.84429407917369], [113.93202352542546, 22.227650940807052], [114.30004326471693, 21.84429407917369], [115.19999262718419, 21.42595132790301], [116.54999167083223, 21.216397899942], [118.79999007691224, 21.635297384859552], [120.12788799225589, 21.66680565299917], [121.02775554672928, 21.66680565299917], [121.94998784542422, 22.469443964829516], [122.39998752664029, 24.01990020343248], [122.17498768603225, 24.53265756616073], [121.80144795065142, 24.863504112487785], [122.17498768603225, 24.94136317175375], [122.84998720785636, 24.94136317175375], [125.40098775956481, 24.44447645409563]], [[125.40098775956481, 24.44447645409563], [125.99998497636834, 24.32780311165181], [128.69998306366443, 24.12261698700344], [130.0, 24.254236758636484]], [[130.0, 30.55678237485787], [129.5999824260964, 30.901396088515508], [129.37498258548837, 31.670513047087127], [129.37498258548837, 32.0]], [[128.08991097173265, 32.0], [128.0249835418403, 31.670513047087127], [127.34998402001638, 29.540507745394493], [127.12498417940834, 28.55704546571133], [125.99998497636834, 26.1593079707739], [125.66248521545637, 25.55188275942587], [125.40098775956481, 24.44447645409563]], [[125.40098775956481, 24.44447645409563], [125.32498545454442, 24.12261698700344], [124.42498609211226, 22.05298561667754], [122.84998720785636, 21.111485983488812], [121.02775554672928, 20.93310564677346]]]}}, {"type": "Feature", "properties": {"id": "guam-okinawa-kyushu-incheon-goki", "name": "Guam Okinawa Kyushu Incheon (GOKI)"}, "geometry": {"type": "MultiLineString", "coordinates": [[[127.12498417940834, 25.957179978764344], [127.46248394032031, 26.1593079707739], [127.68084378563216, 26.212414126750428]], [[130.0, 22.854500664413116], [128.69998306366443, 23.7112581424843], [127.57498386062441, 24.94136317175375], [127.12498417940834, 25.957179978764344]], [[127.12498417940834, 25.957179978764344], [127.12498417940834, 26.562513149236715], [128.0249835418403, 28.55704546571133], [128.24998338244836, 29.540507745394493], [128.92498290427227, 30.5144959597591], [129.0374828245764, 31.670513047087127], [129.13528672369762, 32.0]]]}}, {"type": "Feature", "properties": {"id": "taiwan-strait-express-1-tse-1", "name": "Taiwan Strait Express-1 (TSE-1)"}, "geometry": {"type": "LineString", "coordinates": [[119.60781373392035, 25.780770721177067], [119.92498927876045, 25.805355685864413], [120.82498864178831, 25.55188275942587], [121.27498832419637, 25.348717422116714], [121.46258819070279, 25.181712818924378]]}}, {"type": "Feature", "properties": {"id": "trans-pacific-express-tpe-cable-system", "name": "Trans-Pacific Express (TPE) Cable System"}, "geometry": {"type": "MultiLineString", "coordinates": [[[130.0, 30.621421715618926], [124.19998625150441, 31.86180860227073]], [[124.19998625150441, 31.86180860227073], [122.84998720785636, 31.957307911004964], [121.94998784542422, 31.766210259727007], [121.39529823837174, 31.619800328867754]], [[121.40818822924032, 31.61896581082966], [122.17498768603225, 31.19054975154414], [123.5249867296803, 30.126049846722832], [123.74998657028833, 28.161052262220792], [121.94998784542422, 26.562513149236715], [121.49998816420832, 25.75470426341523], [121.46258819070279, 25.181712818924378], [121.61248808451225, 25.75470426341523], [121.94998784542422, 26.36108632539156], [125.26189309097956, 27.59034732929116], [130.0, 30.410542980100082]], [[130.0, 31.013644337292607], [128.92498290427227, 31.670513047087127], [128.69310315240628, 32.0]], [[124.14540880416743, 32.0], [124.19998625150441, 31.86180860227073]]]}}, {"type": "Feature", "properties": {"id": "cross-straits-cable-network-cscn", "name": "Cross-Straits Cable Network (CSCN)"}, "geometry": {"type": "MultiLineString", "coordinates": [[[118.18905050970763, 24.493915539480593], [118.28993043824354, 24.455516584685828]], [[118.30692042620751, 24.476050879560166], [118.3008704304934, 24.55672655773242]]]}}, {"type": "Feature", "properties": {"id": "pacific-light-cable-network-plcn", "name": "Pacific Light Cable Network (PLCN)"}, "geometry": {"type": "MultiLineString", "coordinates": [[[125.99998497636834, 21.006499845176737], [124.6499859321244, 19.24608308700458], [123.29998688907226, 17.82393441253792], [122.39998752664029, 16.10232559580297], [122.29354129302772, 16.0]], [[125.99998497636834, 21.006499845176737], [124.14876558466459, 23.55170502223485], [122.84998720785636, 24.53265756616073], [122.17498768603225, 24.788256058863375], [121.80145279439779, 24.863504254255204]], [[125.99998497636834, 21.006499845176737], [130.0, 22.188682189179477]]]}}, {"type": "Feature", "properties": {"id": "eac-c2c", "name": "EAC-C2C"}, "geometry": {"type": "MultiLineString", "coordinates": [[[120.12788799225589, 21.457551614722192], [120.37498896116831, 21.635297384859552], [120.54373884162439, 22.05298561667754], [120.66219875770618, 22.24925482135663]], [[125.09998561393637, 24.109781889526705], [125.09588829374145, 24.113194822095725]], [[125.09588829374145, 24.113194822095725], [123.74998657028833, 25.2342865621001], [122.84998720785636, 25.539194978687103], [121.94998784542422, 25.43764443864878], [121.46132608210301, 25.178616672000796]], [[121.46132608210301, 25.178616672000796], [121.3832882468796, 25.137250705417735], [121.94998784542422, 25.33600821718872], [122.39998752664029, 24.928611492263457], [122.84998720785636, 24.007054825363046], [122.39998752664029, 22.45644844059945], [121.73239586713098, 21.10707282396836]], [[121.73239586713098, 21.10707282396836], [121.58949131419438, 20.81822571737036]], [[121.58949131419438, 20.81822571737036], [121.04998848299225, 19.72775079133148], [119.76865992030457, 18.516117231747454], [118.93597086667044, 17.741878907400267], [118.84196551473129, 16.0]], [[114.2586832940168, 22.31829267897149], [114.97499278657615, 22.313417380769337], [115.64999230840026, 22.000841467910675], [117.4499910332642, 21.73983373091106], [118.79999007691224, 21.216397899942], [121.02775554672928, 21.038143463338198], [121.73239586713098, 21.10707282396836]], [[121.73239586713098, 21.10707282396836], [122.84998720785636, 21.216397899942], [124.19998625150441, 22.05298561667754], [125.09588829374145, 24.113194822095725]], [[125.09588829374145, 24.113194822095725], [125.38123541469638, 25.55188275942587], [125.59921546328049, 26.022662033662026]], [[125.59921546328049, 26.022662033662026], [125.66248521545637, 26.1593079707739], [126.67498449819227, 28.55704546571133], [126.89998433880031, 29.540507745394493], [127.34998402001638, 30.708139993541643], [126.17867815954449, 32.0]], [[126.72728576383493, 32.0], [128.24998338244836, 30.708139993541643], [130.0, 29.79997231132238]], [[114.2586832940168, 22.31829267897149], [114.97499278657615, 22.261369678340607], [115.64999230840026, 21.948678137927157], [117.4499910332642, 21.635297384859552], [118.79999007691224, 21.006499845176737], [121.02775554672928, 20.827994119059056], [121.58949131419438, 20.81822571737036]], [[121.58949131419438, 20.81822571737036], [122.84998720785636, 20.796306105108872], [125.99998497636834, 22.05298561667754], [128.69998306366443, 23.298598065875897], [130.0, 24.21686324139802]], [[121.3832882468796, 25.149980712893985], [121.44968050832848, 25.267478496073423]], [[121.44968050832848, 25.267478496073423], [121.72498800481618, 25.75470426341523], [121.94998784542422, 26.05828756029904], [122.84998720785636, 26.260240971577822], [125.59921546328049, 26.022662033662026]], [[125.59921546328049, 26.022662033662026], [128.69998306366443, 25.75470426341523], [130.0, 25.949516131818154]], [[113.68641800299422, 16.0], [114.07499342354828, 17.10851996079568], [114.29999326475222, 18.251816319028222], [114.07499342414418, 20.796306105108872], [114.20292333351767, 22.22205041973683]], [[121.46258819070279, 25.168986122701572], [121.46132608210301, 25.178616672000796]], [[121.46132608210301, 25.178616672000796], [121.44968050832848, 25.267478496073423]], [[121.44968050832848, 25.267478496073423], [121.3874882439044, 25.742038029757644], [121.94998784542422, 26.751029869608292], [123.5249867296803, 28.148653708881287], [123.29998688907226, 30.113886122109243], [122.17498768603225, 30.74440510438189], [121.92508786246776, 30.852678537714777], [122.17498768603225, 31.034033881789767], [122.84998720785636, 31.46682894547825], [124.9188331559423, 32.0]], [[129.5999824260964, 32.0], [129.5999824260964, 31.6585439519066], [130.0, 31.31665536646887]], [[130.0, 22.551504010859354], [125.99998497636834, 21.203287979625483], [122.84998720785636, 20.361858037652684], [120.24308317969574, 18.601843893825777], [119.11906339140688, 17.549363428561175], [119.05643142507033, 16.0]], [[113.91615343127222, 16.0], [114.29999326415633, 17.095079260964887], [114.52499310536027, 18.238460810952724], [114.1874933444483, 20.783159233732995], [114.24789053039318, 22.07452120532399]], [[114.24789053039318, 22.07452120532399], [114.2586832940168, 22.305283024668398]], [[114.20292333351767, 22.22205041973683], [114.24789053039318, 22.07452120532399]], [[114.24789053039318, 22.07452120532399], [115.42499246779222, 18.238460810952724], [116.99999135204831, 16.10232559580297], [117.13256241274564, 16.0]], [[120.12788799225589, 21.457551614722192], [118.79999007691224, 21.53068533396254], [117.4499910332642, 21.84429407917369], [115.64999230840026, 22.05298561667754], [114.97499278657615, 22.365445686418724], [114.2586832940168, 22.31829267897149]]]}}, {"type": "Feature", "properties": {"id": "asia-submarine-cable-express-asecahaya-malaysia", "name": "Asia Submarine-cable Express (ASE)/Cahaya Malaysia"}, "geometry": {"type": "MultiLineString", "coordinates": [[[119.44922323177441, 18.712816516277243], [118.34999039569617, 20.163975031975873], [116.99999135204831, 21.111485983488812], [115.64999230840026, 21.79207342302722], [114.97499278657615, 22.157216226160177], [114.2586832940168, 22.31829267897149]], [[130.0, 22.887133992196325], [126.85721436909918, 19.479734448240144], [126.84821083203585, 19.46535458191885]], [[126.84821083203585, 19.46535458191885], [124.67847936730774, 16.0]], [[126.85721436909918, 19.466476359726585], [126.84821083203585, 19.46535458191885]], [[126.84821083203585, 19.46535458191885], [125.54998529515227, 19.303604751105766], [120.96988207969743, 19.75148716830613], [120.32093903559283, 19.446973787349965], [119.44922323177441, 18.712816516277243]], [[119.44922323177441, 18.712816516277243], [118.5501687609761, 17.89128877075432], [117.78884421953148, 16.0]], [[130.0, 24.556380634179607], [128.69998306366443, 25.55188275942587], [128.0249835418403, 25.957179978764344], [127.70078377150666, 26.087749635462092]]]}}, {"type": "Feature", "properties": {"id": "tata-tgn-intra-asia-tgn-ia", "name": "Tata TGN-Intra Asia (TGN-IA)"}, "geometry": {"type": "MultiLineString", "coordinates": [[[118.26984278307299, 16.0], [119.02751712903803, 17.654665480331733], [120.01268452973224, 18.601843893825777], [120.22076895160585, 18.785187974742005]], [[120.22076895160585, 18.785187974742005], [121.04998848299225, 19.515816877621507], [122.84998720785636, 19.72775079133148], [125.99998497636834, 20.361858037652684], [130.0, 21.041804460590278]], [[114.18397334694201, 22.24961578335278], [114.7499929459683, 21.896495662923588], [115.64999230840026, 21.635250907408707], [116.99999135204831, 21.32123529551186], [118.34999039569617, 20.58581909604039], [120.14998912056028, 19.740987365524937], [121.04998848299225, 19.529070924350908]], [[120.22031319972999, 18.785187974742005], [120.22076895160585, 18.785187974742005]], [[120.22076895160585, 18.785187974742005], [121.04998848299225, 18.785187974742005], [121.5130781549352, 18.418302135034143]]]}}, {"type": "Feature", "properties": {"id": "asia-pacific-gateway-apg", "name": "Asia Pacific Gateway (APG)"}, "geometry": {"type": "MultiLineString", "coordinates": [[[113.1308729427105, 16.0], [113.84999358353615, 18.251816319028222]], [[113.84999358353615, 18.251816319028222], [116.99999135204831, 19.740987365524937], [120.14998912056028, 20.375041253465433], [122.84998720785636, 21.006499845176737], [124.6499859327203, 22.05298561667754], [125.54998529515227, 24.12261698700344]], [[125.54998529515227, 24.12261698700344], [125.9437350162162, 25.55188275942587], [126.3374847372803, 26.1593079707739], [127.57498386062441, 28.55704546571133]], [[127.57498386062441, 28.55704546571133], [127.79998370123228, 29.540507745394493]], [[127.79998370123228, 29.540507745394493], [128.69998306366443, 30.5144959597591]], [[128.69998306366443, 30.5144959597591], [130.0, 30.37436087067326]], [[128.69998306366443, 30.5144959597591], [128.69998306366443, 31.670513047087127], [128.7649104935567, 32.0]], [[113.84999358353615, 18.251816319028222], [113.84999358353615, 20.796306105108872], [114.2586832940168, 22.31829267897149]], [[127.79998370123228, 29.540507745394493], [125.99998497636834, 30.708139993541643], [124.19998625150441, 31.478822672736147], [122.84998720785636, 31.766210259727007], [121.94998784542422, 31.670513047087127], [121.39529823837174, 31.619800328867754]], [[121.92508786246776, 30.86475026744717], [122.17498768603225, 30.80481662242606], [124.19998625150441, 30.126049846722832], [125.54998529515227, 29.540507745394493], [127.57498386062441, 28.55704546571133]], [[125.54998529515227, 24.12261698700344], [122.84998720785636, 24.83931282559271], [122.17498768603225, 24.89034854048814], [121.80144795065142, 24.863504112487785]]]}}, {"type": "Feature", "properties": {"id": "southeast-asia-japan-cable-sjc", "name": "Southeast Asia-Japan Cable (SJC)"}, "geometry": {"type": "MultiLineString", "coordinates": [[[115.51619888668007, 16.0], [116.09999198961616, 18.238460810952724], [120.14998912056028, 20.15077387441527], [121.04998848299225, 20.15077387441527], [122.84998720785636, 20.572653976019456], [125.99998497636834, 21.41290665207303], [130.0, 22.9262669498244]], [[116.09999198961616, 18.251816319028222], [115.19999262718419, 19.529070924350908], [114.7499929459683, 20.796306105108872], [114.29999326475222, 21.635297384859552], [114.20292333351767, 22.22205041973683]], [[116.67753158048176, 23.355006811273547], [117.1687412325042, 22.884654113882444], [118.34999039569617, 22.105110548108275], [120.14998912056028, 20.163975031975873]]]}}, {"type": "Feature", "properties": {"id": "asia-africa-europe-1-aae-1", "name": "Asia Africa Europe-1 (AAE-1)"}, "geometry": {"type": "LineString", "coordinates": [[112.81598302199936, 16.0], [113.6249937429283, 18.251816319028222], [113.73749366323221, 20.796306105108872], [114.26024329291157, 22.20803425139447]]}}], "attribution": "TeleGeography Submarine Cable Map, CC BY-NC-SA 4.0"}