{"type": "FeatureCollection", "features": [{"type": "Feature", "properties": {"name": "territorial sea (12 nm)", "level": "ts"}, "geometry": {"type": "MultiLineString", "coordinates": [[[120.65, 21.725], [120.8, 21.725], [120.95, 21.725], [121.025, 21.8], [121.075, 21.9], [121.075, 22.05], [121.075, 22.2], [121.1, 22.325], [121.15, 22.425], [121.2, 22.525], [121.275, 22.55], [121.35, 22.475], [121.45, 22.425], [121.575, 22.45], [121.675, 22.5], [121.725, 22.6], [121.725, 22.75], [121.65, 22.825], [121.55, 22.875], [121.55, 22.975], [121.6, 23.075], [121.625, 23.2], [121.675, 23.3], [121.7, 23.425], [121.725, 23.55], [121.775, 23.65], [121.775, 23.8], [121.825, 23.9], [121.825, 24.05], [121.9, 24.125], [121.975, 24.2], [122.0, 24.325], [122.05, 24.425], [122.075, 24.55], [122.1, 24.625], [122.05, 24.725], [122.075, 24.8], [122.15, 24.875], [122.225, 24.95], [122.2, 25.075], [122.15, 25.175], [122.075, 25.25], [121.975, 25.3], [121.85, 25.325], [121.775, 25.4], [121.7, 25.475], [121.55, 25.475], [121.4, 25.475], [121.325, 25.4], [121.25, 25.325], [121.125, 25.3], [121.025, 25.25], [120.925, 25.2], [120.85, 25.125], [120.775, 25.05], [120.725, 24.95], [120.675, 24.85], [120.6, 24.775], [120.525, 24.7], [120.475, 24.6], [120.4, 24.525], [120.35, 24.425], [120.3, 24.325], [120.225, 24.25], [120.175, 24.15], [120.125, 24.05], [120.075, 23.95], [120.0, 23.875], [119.975, 23.75], [119.925, 23.65], [119.85, 23.675], [119.775, 23.75], [119.7, 23.825], [119.6, 23.875], [119.475, 23.85], [119.375, 23.8], [119.3, 23.725], [119.225, 23.65], [119.225, 23.5], [119.3, 23.425], [119.4, 23.375], [119.5, 23.325], [119.65, 23.325], [119.75, 23.375], [119.825, 23.3], [119.85, 23.225], [119.825, 23.1], [119.85, 22.975], [119.925, 22.9], [119.975, 22.8], [120.025, 22.7], [120.05, 22.575], [120.1, 22.475], [120.175, 22.4], [120.25, 22.325], [120.35, 22.275], [120.425, 22.2], [120.475, 22.1], [120.475, 21.95], [120.525, 21.85], [120.6, 21.775]], [[121.45, 21.825], [121.6, 21.825], [121.725, 21.85], [121.775, 21.95], [121.825, 22.05], [121.775, 22.15], [121.7, 22.225], [121.6, 22.275], [121.45, 22.275], [121.35, 22.225], [121.275, 22.15], [121.275, 22.0], [121.35, 21.925], [121.425, 21.85]], [[118.35, 24.192], [118.45, 24.225], [118.575, 24.25], [118.608, 24.35], [118.55, 24.408], [118.5, 24.508], [118.4, 24.558], [118.3, 24.508], [118.242, 24.45], [118.192, 24.35], [118.25, 24.292], [118.342, 24.2]], [[119.35, 24.775], [119.5, 24.775], [119.6, 24.825], [119.675, 24.9], [119.65, 25.008], [119.55, 25.058], [119.45, 25.108], [119.35, 25.058], [119.25, 25.008], [119.242, 24.9], [119.3, 24.825]], [[119.95, 25.925], [120.05, 25.975], [120.15, 26.025], [120.225, 26.1], [120.3, 26.175], [120.45, 26.175], [120.6, 26.175], [120.675, 26.25], [120.725, 26.35], [120.7, 26.475], [120.625, 26.55], [120.5, 26.575], [120.35, 26.558], [120.25, 26.508], [120.15, 26.458], [120.092, 26.4], [120.0, 26.308], [119.942, 26.25], [119.842, 26.2], [119.792, 26.1], [119.85, 26.042], [119.942, 25.95]]]}}, {"type": "Feature", "properties": {"name": "contiguous zone (24 nm)", "level": "cz"}, "geometry": {"type": "MultiLineString", "coordinates": [[[120.65, 21.525], [120.8, 21.525], [120.95, 21.525], [121.05, 21.575], [121.15, 21.625], [121.225, 21.7], [121.3, 21.675], [121.4, 21.625], [121.55, 21.625], [121.7, 21.625], [121.8, 21.675], [121.9, 21.725], [121.975, 21.8], [122.025, 21.9], [122.025, 22.05], [121.975, 22.15], [121.95, 22.275], [121.875, 22.35], [121.85, 22.425], [121.925, 22.5], [121.925, 22.65], [121.925, 22.8], [121.875, 22.9], [121.825, 23.0], [121.825, 23.15], [121.875, 23.25], [121.925, 23.35], [121.925, 23.5], [121.975, 23.6], [122.0, 23.725], [122.025, 23.85], [122.075, 23.95], [122.125, 24.05], [122.175, 24.15], [122.225, 24.25], [122.275, 24.35], [122.3, 24.475], [122.325, 24.6], [122.325, 24.75], [122.4, 24.825], [122.425, 24.95], [122.425, 25.1], [122.375, 25.2], [122.325, 25.3], [122.25, 25.375], [122.15, 25.425], [122.05, 25.475], [121.95, 25.525], [121.875, 25.6], [121.775, 25.65], [121.65, 25.675], [121.5, 25.675], [121.35, 25.675], [121.25, 25.625], [121.175, 25.55], [121.075, 25.5], [120.975, 25.45], [120.85, 25.425], [120.775, 25.35], [120.7, 25.275], [120.625, 25.2], [120.575, 25.1], [120.525, 25.0], [120.45, 24.925], [120.375, 24.85], [120.3, 24.775], [120.25, 24.675], [120.175, 24.6], [120.125, 24.5], [120.075, 24.4], [120.025, 24.3], [119.95, 24.225], [119.9, 24.125], [119.85, 24.025], [119.725, 24.05], [119.6, 24.075], [119.45, 24.075], [119.35, 24.025], [119.25, 23.975], [119.175, 23.9], [119.1, 23.825], [119.05, 23.725], [119.025, 23.6], [119.025, 23.45], [119.075, 23.35], [119.15, 23.275], [119.25, 23.225], [119.35, 23.175], [119.45, 23.125], [119.6, 23.125], [119.625, 23.0], [119.675, 22.9], [119.725, 22.8], [119.775, 22.7], [119.825, 22.6], [119.85, 22.475], [119.9, 22.375], [119.975, 22.3], [120.05, 22.225], [120.125, 22.15], [120.225, 22.1], [120.275, 22.0], [120.275, 21.85], [120.325, 21.75], [120.4, 21.675], [120.475, 21.6], [120.6, 21.575]], [[118.45, 24.038], [118.6, 24.025], [118.7, 24.075], [118.775, 24.15], [118.712, 24.25], [118.65, 24.313], [118.575, 24.4], [118.525, 24.5], [118.45, 24.575], [118.35, 24.525], [118.225, 24.5], [118.2, 24.375], [118.225, 24.3], [118.3, 24.225], [118.387, 24.15], [118.437, 24.05]], [[119.35, 24.575], [119.5, 24.575], [119.6, 24.625], [119.7, 24.675], [119.8, 24.725], [119.85, 24.825], [119.85, 24.913], [119.75, 24.963], [119.65, 25.025], [119.55, 25.075], [119.45, 25.125], [119.35, 25.075], [119.25, 25.025], [119.225, 24.9], [119.25, 24.788], [119.287, 24.65], [119.35, 24.575]], [[120.05, 25.838], [120.2, 25.838], [120.3, 25.875], [120.375, 25.95], [120.475, 25.95], [120.55, 25.975], [120.7, 25.975], [120.775, 26.05], [120.875, 26.1], [120.925, 26.2], [120.975, 26.3], [120.975, 26.45], [120.925, 26.55], [120.85, 26.625], [120.775, 26.7], [120.687, 26.7], [120.55, 26.663], [120.437, 26.65], [120.35, 26.575], [120.25, 26.525], [120.15, 26.475], [120.075, 26.4], [120.0, 26.325], [119.925, 26.25], [119.825, 26.2], [119.775, 26.1], [119.85, 26.025], [119.925, 25.95], [120.0, 25.888]]]}}, {"type": "Feature", "properties": {"name": "EEZ (approx. 200 nm / median line)", "level": "eez"}, "geometry": {"type": "MultiLineString", "coordinates": [[[118.05, 20.275], [118.2, 20.275], [118.35, 20.275], [118.5, 20.275], [118.65, 20.275], [118.8, 20.275], [118.95, 20.275], [119.1, 20.275], [119.25, 20.275], [119.4, 20.275], [119.5, 20.325], [119.65, 20.325], [119.75, 20.375], [119.875, 20.4], [120.0, 20.425], [120.125, 20.45], [120.2, 20.525], [120.3, 20.575], [120.375, 20.65], [120.45, 20.725], [120.55, 20.775], [120.65, 20.825], [120.725, 20.9], [120.825, 20.95], [120.9, 21.025], [121.0, 21.075], [121.075, 21.15], [121.15, 21.225], [121.225, 21.3], [121.3, 21.375], [121.4, 21.425], [121.5, 21.475], [121.6, 21.525], [121.725, 21.55], [121.85, 21.575], [121.95, 21.625], [122.05, 21.675], [122.15, 21.725], [122.275, 21.75], [122.4, 21.775], [122.5, 21.825], [122.6, 21.875], [122.725, 21.9], [122.85, 21.925], [122.95, 21.975], [123.05, 22.025], [123.175, 22.05], [123.275, 22.1], [123.4, 22.125], [123.5, 22.175], [123.6, 22.225], [123.725, 22.25], [123.65, 22.325], [123.575, 22.4], [123.5, 22.475], [123.4, 22.525], [123.35, 22.625], [123.275, 22.7], [123.2, 22.775], [123.125, 22.85], [123.075, 22.95], [123.0, 23.025], [122.9, 23.075], [122.85, 23.175], [122.775, 23.25], [122.7, 23.325], [122.65, 23.425], [122.575, 23.5], [122.525, 23.6], [122.475, 23.7], [122.45, 23.825], [122.425, 23.95], [122.4, 24.075], [122.375, 24.2], [122.375, 24.35], [122.4, 24.475], [122.425, 24.6], [122.475, 24.7], [122.525, 24.8], [122.575, 24.9], [122.65, 24.975], [122.7, 25.075], [122.775, 25.15], [122.825, 25.25], [122.775, 25.35], [122.725, 25.45], [122.675, 25.55], [122.625, 25.65], [122.575, 25.75], [122.525, 25.85], [122.475, 25.95], [122.425, 26.05], [122.375, 26.15], [122.325, 26.25], [122.275, 26.35], [122.275, 26.5], [122.15, 26.525], [122.05, 26.475], [121.9, 26.475], [121.75, 26.475], [121.65, 26.525], [121.55, 26.575], [121.45, 26.625], [121.35, 26.675], [121.25, 26.725], [121.15, 26.775], [121.0, 26.775], [120.9, 26.725], [120.75, 26.738], [120.65, 26.688], [120.5, 26.688], [120.4, 26.638], [120.3, 26.592], [120.2, 26.542], [120.1, 26.492], [120.058, 26.35], [119.958, 26.3], [119.9, 26.242], [119.8, 26.192], [119.8, 26.058], [119.858, 26.0], [119.912, 25.9], [120.012, 25.85], [120.15, 25.813], [120.275, 25.8], [120.4, 25.775], [120.525, 25.75], [120.6, 25.675], [120.6, 25.575], [120.55, 25.475], [120.5, 25.375], [120.45, 25.275], [120.4, 25.175], [120.325, 25.1], [120.25, 25.025], [120.175, 24.95], [120.125, 24.85], [120.05, 24.875], [119.925, 24.9], [119.837, 24.95], [119.737, 25.0], [119.6, 25.042], [119.5, 25.092], [119.4, 25.142], [119.3, 25.092], [119.208, 25.0], [119.212, 24.85], [119.262, 24.75], [119.275, 24.6], [119.325, 24.5], [119.35, 24.375], [119.325, 24.3], [119.25, 24.225], [119.15, 24.175], [119.075, 24.1], [119.0, 24.025], [118.9, 24.075], [118.825, 24.15], [118.75, 24.238], [118.7, 24.338], [118.6, 24.392], [118.542, 24.45], [118.492, 24.55], [118.358, 24.55], [118.25, 24.542], [118.208, 24.4], [118.2, 24.308], [118.258, 24.25], [118.35, 24.158], [118.412, 24.1], [118.475, 24.0], [118.525, 23.9], [118.575, 23.8], [118.625, 23.7], [118.575, 23.6], [118.55, 23.475], [118.525, 23.35], [118.475, 23.25], [118.475, 23.1], [118.425, 23.0], [118.425, 22.85], [118.425, 22.7], [118.425, 22.55], [118.425, 22.4], [118.425, 22.25], [118.425, 22.1], [118.4, 21.975], [118.375, 21.85], [118.325, 21.75], [118.3, 21.625], [118.275, 21.5], [118.225, 21.4], [118.225, 21.25], [118.225, 21.1], [118.175, 21.0], [118.175, 20.85], [118.125, 20.75], [118.125, 20.6], [118.075, 20.5], [118.05, 20.375], [118.05, 20.275]]]}}]}