{"type": "FeatureCollection", "features": [{"type": "Feature", "properties": {"name": "Taiwan-administered land"}, "geometry": {"type": "MultiPolygon", "coordinates": [[[[119.668468, 23.548814], [119.651378, 23.561591], [119.640636, 23.563544], [119.609711, 23.551947], [119.600108, 23.528388], [119.582367, 23.518948], [119.563975, 23.516588], [119.545584, 23.523098], [119.52711, 23.539984], [119.531993, 23.548814], [119.542166, 23.537584], [119.557384, 23.534613], [119.573741, 23.538764], [119.587169, 23.548814], [119.570567, 23.556057], [119.559255, 23.569322], [119.552419, 23.562486], [119.552419, 23.590399], [119.567231, 23.588528], [119.59547, 23.604722], [119.613129, 23.610297], [119.606293, 23.590399], [119.621593, 23.594672], [119.641856, 23.594062], [119.64796, 23.603461], [119.665782, 23.57331], [119.670665, 23.559231], [119.668468, 23.548814]]], [[[119.507823, 23.632392], [119.501231, 23.619818], [119.490733, 23.590399], [119.49171, 23.571031], [119.466075, 23.568061], [119.456554, 23.562486], [119.442393, 23.562486], [119.449474, 23.574123], [119.474457, 23.579739], [119.477061, 23.603461], [119.489431, 23.639635], [119.501313, 23.650377], [119.517345, 23.6376], [119.507823, 23.632392]]], [[[119.591075, 23.66352], [119.596202, 23.653266], [119.586925, 23.645006], [119.590668, 23.632799], [119.585134, 23.624742], [119.576834, 23.622504], [119.569347, 23.639716], [119.545258, 23.664944], [119.566417, 23.679185], [119.591075, 23.66352]]], [[[118.467355, 24.461828], [118.463356, 24.431523], [118.448785, 24.415513], [118.422901, 24.430304], [118.403624, 24.43601], [118.372856, 24.433201], [118.34576, 24.417579], [118.330994, 24.396482], [118.318218, 24.390544], [118.283946, 24.401272], [118.279552, 24.408433], [118.292003, 24.424994], [118.292735, 24.432074], [118.289561, 24.455634], [118.282074, 24.477362], [118.316657, 24.493349], [118.354809, 24.470562], [118.381414, 24.473511], [118.385393, 24.503817], [118.394216, 24.522691], [118.422597, 24.527968], [118.44959, 24.505528], [118.467355, 24.461828]]], [[[119.4514548922156, 24.982296954002912], [119.44785893616917, 24.98094694829339], [119.444, 24.980486486486488], [119.44014106383084, 24.98094694829339], [119.43654510778441, 24.982296954002912], [119.43345719032268, 24.98444450295694], [119.43108774791764, 24.987243243243242], [119.42959825415352, 24.990502445336453], [119.42909021556882, 24.994], [119.42959825415352, 24.997497554663546], [119.43108774791764, 25.000756756756758], [119.43345719032268, 25.00355549704306], [119.43654510778441, 25.005703045997087], [119.44014106383084, 25.00705305170661], [119.444, 25.007513513513512], [119.44785893616917, 25.00705305170661], [119.4514548922156, 25.005703045997087], [119.45454280967732, 25.00355549704306], [119.45691225208236, 25.000756756756758], [119.45840174584649, 24.997497554663546], [119.45890978443119, 24.994], [119.45840174584649, 24.990502445336453], [119.45691225208236, 24.987243243243242], [119.45454280967732, 24.98444450295694], [119.4514548922156, 24.982296954002912]]], [[[119.966055726029, 26.136593908005825], [119.9587934172683, 26.13389389658678], [119.951, 26.132972972972972], [119.94320658273169, 26.13389389658678], [119.93594427397099, 26.136593908005825], [119.9297079880584, 26.140889005913877], [119.92492271757291, 26.146486486486488], [119.9219145707901, 26.153004890672904], [119.92088854794197, 26.16], [119.9219145707901, 26.166995109327097], [119.92492271757291, 26.173513513513512], [119.9297079880584, 26.179110994086123], [119.93594427397099, 26.183406091994176], [119.94320658273169, 26.18610610341322], [119.951, 26.18702702702703], [119.9587934172683, 26.18610610341322], [119.966055726029, 26.183406091994176], [119.97229201194159, 26.179110994086123], [119.97707728242708, 26.173513513513512], [119.9800854292099, 26.166995109327097], [119.98111145205802, 26.16], [119.9800854292099, 26.153004890672904], [119.97707728242708, 26.146486486486488], [119.97229201194159, 26.140889005913877], [119.966055726029, 26.136593908005825]]], [[[120.01575294231057, 26.207074171594897], [120.01055322589383, 26.203494923338187], [120.00449802787759, 26.20124491382232], [119.998, 26.200477477477477], [119.99150197212242, 26.20124491382232], [119.98544677410618, 26.203494923338187], [119.98024705768944, 26.207074171594897], [119.97625717495302, 26.211738738738738], [119.97374902981184, 26.21717074222742], [119.97289354821237, 26.223], [119.97374902981184, 26.228829257772578], [119.97625717495302, 26.23426126126126], [119.98024705768944, 26.2389258284051], [119.98544677410618, 26.24250507666181], [119.99150197212242, 26.24475508617768], [119.998, 26.24552252252252], [120.00449802787759, 26.24475508617768], [120.01055322589383, 26.24250507666181], [120.01575294231057, 26.2389258284051], [120.01974282504699, 26.23426126126126], [120.02225097018817, 26.228829257772578], [120.02310645178764, 26.223], [120.02225097018817, 26.21717074222742], [120.01974282504699, 26.211738738738738], [120.01575294231057, 26.207074171594897]]], [[[121.53891, 22.018215], [121.513194, 22.035061], [121.498302, 22.048041], [121.502778, 22.057563], [121.502615, 22.066555], [121.492035, 22.08218], [121.56658, 22.08218], [121.560069, 22.053534], [121.563487, 22.044623], [121.588878, 22.023505], [121.587657, 22.013861], [121.566905, 22.007758], [121.53891, 22.018215]]], [[[121.502778, 22.669501], [121.494965, 22.644192], [121.496104, 22.63467], [121.483165, 22.636135], [121.471446, 22.641791], [121.455414, 22.673814], [121.45753, 22.67593], [121.495779, 22.678534], [121.502778, 22.669501]]], [[[120.090301, 23.499396], [120.047912, 23.458085], [120.007656, 23.432594], [120.021861, 23.451644], [120.074932, 23.500818], [120.115251, 23.547912], [120.12477, 23.550454], [120.090301, 23.499396]]], [[[121.806814, 24.778754], [121.807791, 24.753119], [121.820323, 24.699652], [121.819591, 24.685981], [121.81422, 24.672309], [121.814952, 24.644355], [121.827973, 24.622789], [121.852712, 24.608873], [121.881847, 24.60399], [121.881847, 24.597805], [121.857758, 24.597846], [121.840831, 24.590318], [121.850841, 24.572984], [121.855968, 24.550523], [121.852794, 24.530992], [121.830089, 24.519232], [121.82838, 24.510728], [121.840017, 24.48135], [121.806814, 24.460639], [121.78004, 24.432685], [121.780772, 24.39761], [121.771495, 24.380561], [121.766449, 24.347357], [121.758556, 24.332343], [121.772716, 24.309231], [121.767426, 24.30093], [121.745291, 24.281236], [121.721446, 24.251166], [121.703868, 24.238349], [121.698253, 24.231513], [121.700938, 24.224189], [121.697765, 24.21898], [121.662852, 24.193101], [121.652192, 24.172187], [121.641287, 24.129869], [121.613048, 24.092108], [121.607432, 24.07685], [121.608165, 24.060492], [121.615001, 24.042304], [121.628917, 24.02619], [121.629161, 24.01496], [121.625011, 24.002387], [121.611095, 23.982489], [121.594493, 23.891506], [121.570323, 23.832099], [121.539806, 23.692816], [121.521495, 23.658677], [121.462169, 23.343004], [121.453624, 23.325995], [121.426768, 23.293118], [121.408865, 23.254584], [121.403331, 23.214748], [121.403819, 23.179267], [121.400076, 23.145494], [121.381602, 23.110663], [121.347423, 23.083319], [121.337087, 23.05508], [121.318858, 23.025539], [121.299571, 22.959174], [121.255626, 22.897773], [121.20281, 22.856513], [121.190278, 22.843166], [121.190278, 22.802151], [121.177419, 22.778632], [121.141449, 22.741767], [121.080251, 22.704088], [121.039073, 22.662421], [121.029063, 22.657538], [121.021007, 22.647895], [120.991222, 22.583075], [120.960623, 22.547797], [120.948253, 22.526801], [120.941091, 22.483629], [120.922862, 22.42475], [120.886567, 22.365953], [120.881358, 22.345933], [120.875011, 22.289252], [120.879242, 22.055813], [120.873302, 22.029975], [120.863617, 22.008938], [120.835704, 21.98725], [120.836192, 21.957709], [120.841563, 21.925482], [120.840343, 21.904608], [120.82309, 21.928616], [120.797374, 21.946763], [120.767426, 21.959296], [120.737315, 21.966132], [120.736095, 21.942816], [120.727306, 21.934475], [120.714366, 21.937486], [120.700369, 21.948432], [120.704356, 21.981391], [120.68336, 22.013861], [120.681651, 22.022528], [120.68336, 22.079047], [120.685557, 22.090155], [120.694835, 22.102607], [120.696951, 22.113227], [120.621267, 22.295071], [120.593923, 22.329169], [120.569672, 22.373847], [120.538748, 22.39643], [120.518077, 22.406968], [120.511974, 22.42475], [120.457205, 22.451606], [120.413259, 22.482327], [120.40211, 22.486802], [120.38087, 22.483873], [120.331228, 22.519721], [120.285167, 22.580064], [120.333669, 22.525946], [120.327973, 22.551703], [120.313487, 22.577053], [120.258962, 22.62759], [120.245779, 22.642524], [120.239594, 22.659084], [120.252126, 22.689643], [120.246349, 22.709906], [120.21754, 22.756741], [120.199962, 22.792467], [120.196462, 22.81859], [120.203461, 22.839667], [120.191417, 22.852037], [120.175548, 22.884101], [120.163829, 22.953843], [120.156912, 22.966539], [120.1421, 22.980292], [120.160167, 22.992133], [120.170258, 23.013373], [120.166189, 23.031724], [120.1421, 23.034898], [120.12672, 23.007148], [120.114106, 23.007636], [120.109141, 23.015448], [120.111013, 23.039984], [120.107921, 23.04857], [120.092459, 23.054755], [120.076671, 23.037421], [120.066254, 23.034898], [120.055186, 23.043687], [120.052419, 23.055813], [120.059418, 23.075873], [120.070567, 23.081204], [120.096446, 23.086412], [120.100434, 23.096991], [120.094981, 23.102484], [120.059418, 23.110663], [120.059418, 23.117499], [120.089203, 23.117743], [120.086274, 23.126939], [120.059418, 23.151028], [120.062022, 23.165025], [120.081879, 23.173163], [120.086925, 23.182034], [120.078624, 23.206977], [120.087444, 23.230288], [120.096098, 23.239491], [120.096039, 23.255357], [120.108897, 23.286689], [120.114919, 23.292711], [120.124685, 23.294989], [120.110494, 23.303699], [120.116527, 23.317897], [120.13118, 23.31881], [120.143565, 23.323879], [120.148936, 23.322252], [120.145763, 23.333319], [120.137341, 23.327734], [120.120942, 23.329739], [120.120779, 23.341254], [120.130149, 23.36096], [120.164577, 23.361711], [120.150645, 23.398139], [120.134776, 23.426256], [120.1421, 23.438951], [120.1421, 23.445787], [120.130544, 23.450995], [120.1421, 23.47309], [120.157544, 23.491476], [120.125029, 23.489611], [120.124262, 23.520021], [120.141689, 23.537947], [120.143609, 23.638036], [120.15423, 23.672212], [120.170805, 23.698902], [120.175548, 23.733832], [120.184418, 23.76439], [120.18922, 23.774807], [120.212657, 23.803168], [120.219493, 23.817939], [120.240733, 23.832831], [120.257498, 23.878404], [120.292247, 23.911933], [120.302501, 23.93887], [120.318126, 23.965806], [120.340099, 24.021796], [120.350352, 24.038072], [120.385509, 24.063056], [120.392345, 24.082913], [120.411876, 24.09691], [120.416352, 24.107489], [120.41863, 24.142524], [120.422048, 24.152167], [120.477794, 24.209662], [120.480642, 24.221096], [120.493175, 24.230658], [120.511974, 24.295559], [120.547374, 24.351549], [120.558116, 24.385891], [120.570811, 24.404934], [120.648936, 24.483873], [120.656016, 24.49787], [120.659353, 24.520697], [120.667735, 24.540025], [120.690196, 24.576117], [120.6963, 24.597724], [120.702159, 24.607001], [120.727875, 24.613918], [120.74464, 24.638821], [120.778087, 24.665717], [120.799327, 24.670803], [120.826671, 24.666083], [120.823009, 24.685045], [120.847504, 24.710842], [120.857677, 24.737006], [120.871349, 24.743232], [120.876964, 24.761908], [120.90919, 24.816881], [120.902354, 24.836819], [120.920584, 24.861396], [120.926036, 24.884711], [120.944021, 24.902045], [120.953624, 24.905015], [120.955333, 24.919379], [120.963878, 24.940416], [121.005544, 25.000678], [121.031993, 25.029242], [121.059337, 25.050238], [121.129405, 25.071112], [121.176931, 25.100043], [121.210948, 25.111151], [121.330251, 25.130683], [121.348318, 25.137112], [121.378754, 25.157945], [121.398936, 25.159491], [121.412283, 25.155463], [121.430024, 25.131578], [121.443207, 25.13642], [121.429454, 25.155992], [121.4074, 25.176215], [121.395763, 25.182807], [121.399099, 25.192125], [121.41627, 25.203599], [121.43629, 25.241441], [121.461274, 25.261908], [121.497813, 25.278754], [121.539724, 25.287421], [121.580821, 25.283026], [121.597911, 25.27143], [121.635997, 25.222805], [121.649669, 25.197089], [121.676117, 25.202582], [121.684418, 25.200507], [121.676117, 25.186916], [121.676443, 25.179389], [121.703868, 25.156887], [121.892833, 25.113674], [121.905121, 25.106594], [121.897227, 25.083889], [121.899913, 25.065985], [121.90919, 25.036038], [121.9192, 25.02204], [121.927257, 25.018704], [121.953868, 25.022366], [121.96754, 25.021064], [121.997732, 25.010688], [122.005382, 25.001899], [121.926768, 24.96662], [121.905772, 24.9501], [121.834727, 24.871527], [121.823497, 24.854926], [121.814626, 24.831732], [121.806814, 24.778754]]], [[[120.50605523398451, 26.353395938670552], [120.50120497211631, 26.351595931057854], [120.496, 26.35098198198198], [120.49079502788368, 26.351595931057854], [120.48594476601548, 26.353395938670552], [120.48177975172625, 26.35625933727592], [120.47858382385681, 26.35999099099099], [120.47657477960993, 26.364336593781935], [120.47588953203095, 26.369], [120.47657477960993, 26.373663406218064], [120.47858382385681, 26.37800900900901], [120.48177975172625, 26.38174066272408], [120.48594476601548, 26.384604061329448], [120.49079502788368, 26.386404068942145], [120.496, 26.38701801801802], [120.50120497211631, 26.386404068942145], [120.50605523398451, 26.384604061329448], [120.51022024827374, 26.38174066272408], [120.51341617614318, 26.37800900900901], [120.51542522039006, 26.373663406218064], [120.51611046796904, 26.369], [120.51542522039006, 26.364336593781935], [120.51341617614318, 26.35999099099099], [120.51022024827374, 26.35625933727592], [120.50605523398451, 26.353395938670552]]], [[[120.2625691512324, 26.35049492333819], [120.25650627143943, 26.34824491382232], [120.25, 26.34747747747748], [120.24349372856057, 26.34824491382232], [120.2374308487676, 26.35049492333819], [120.23222453585961, 26.3540741715949], [120.22822959145746, 26.35873873873874], [120.22571826442018, 26.364170742227422], [120.22486169753519, 26.37], [120.22571826442018, 26.37582925777258], [120.22822959145746, 26.381261261261262], [120.23222453585961, 26.385925828405103], [120.2374308487676, 26.389505076661813], [120.24349372856057, 26.39175508617768], [120.25, 26.392522522522523], [120.25650627143943, 26.39175508617768], [120.2625691512324, 26.389505076661813], [120.26777546414039, 26.385925828405103], [120.27177040854254, 26.381261261261262], [120.27428173557982, 26.37582925777258], [120.27513830246481, 26.37], [120.27428173557982, 26.364170742227422], [120.27177040854254, 26.35873873873874], [120.26777546414039, 26.3540741715949], [120.2625691512324, 26.35049492333819]]]]}}], "note": "Natural Earth (public domain) + approximate Matsu/Wuqiu stand-ins; not legal baselines"}